Code;Nom;Description;Date d'entrée en service (à 00h00);Date de fin de service (à 00h00);Etat;Adresse;Code commune;Commune;Zas;Organisme;Longitude;Latitude;Altitude;Système de projection;Implantation
FR01011;Metz-Centre;Agglomération de Metz - Centre (Récollets);01/01/1989;;En service;33 rue des murs Les Récollets;57463;METZ;ZAG METZ (FR44ZAG02);ATMO GRAND EST (31);6.180833;49.119442;192.0;World geometric system 1984;Urbaine
FR01012;Metz-Borny;Agglomération de Metz - Est (Borny);01/01/1991;;En service;Impasse Charles et Louis Jacquard;57463;METZ;ZAG METZ (FR44ZAG02);ATMO GRAND EST (31);6.223336;49.110283;204.0;World geometric system 1984;Urbaine
FR01014;Pont-à-Mousson;Agglomération de Pont-à-Mousson - Centre;01/09/1990;;En service;école Guynemer rue Maurice Barrès;54431;PONT-À-MOUSSON;ZR GRAND-EST (FR44ZRE01);ATMO GRAND EST (31);6.058336;48.915;179.0;World geometric system 1984;Urbaine
FR01016;Atton;Vallée de la Moselle (Atton);01/07/1990;;En service;rue Scarponne;54027;ATTON;ZR GRAND-EST (FR44ZRE01);ATMO GRAND EST (31);6.093611;48.886387;203.0;World geometric system 1984;Rurale près des villes
FR01018;Scy-Chazelles;Agglomération de Metz - Ouest (Scy-Chazelles);28/09/2000;;En service;Stade Municipal;57642;SCY-CHAZELLES;ZAG METZ (FR44ZAG02);ATMO GRAND EST (31);6.122775;49.107502;170.0;World geometric system 1984;Périurbaine
FR01020;Thionville-Centre;Agglomération de Thionville - Centre;08/07/1999;;En service;stade Jeanne d Arc;57672;THIONVILLE;ZAG METZ (FR44ZAG02);ATMO GRAND EST (31);6.156942;49.358337;154.0;World geometric system 1984;Urbaine
FR01021;Thionville-Garche;Agglomération de Thionville - Nord (Garche);29/12/2000;;En service;Rue des Quatre Seigneurs;57672;THIONVILLE;ZAG METZ (FR44ZAG02);ATMO GRAND EST (31);6.201392;49.394444;151.0;World geometric system 1984;Périurbaine
FR01059;HAYANGE-MARSPICH;suivi des poussières fines sur le secteur d’Hayange et Serémange-Erzange;01/01/2013;;En service;rue du 6 juin 1944 - Ecole primaire;57306;HAYANGE;ZAG METZ (FR44ZAG02);ATMO GRAND EST (31);6.08207;49.3374;197.0;World geometric system 1984;Périurbaine
FR01061;Florange_Bétange_HAP;industrie fermée depuis Mai 2020;20/04/2009;;En service;Complexe de Bétange;57221;FLORANGE;ZAG METZ (FR44ZAG02);ATMO GRAND EST (31);6.1147;49.3331;167.0;World geometric system 1984;Périurbaine
FR01064;Metz- Pont Grilles;;17/07/2013;;En service;Pont des Grilles;57463;METZ;ZAG METZ (FR44ZAG02);ATMO GRAND EST (31);6.181219;49.12508;164.0;World geometric system 1984;Urbaine
FR01065;Belleville sur Meuse;;10/01/2014;;En service;Avenue Miribel;55043;BELLEVILLE-SUR-MEUSE;ZR GRAND-EST (FR44ZRE01);ATMO GRAND EST (31);5.387461;49.16778;195.0;World geometric system 1984;Urbaine
FR02001;Berre l'Etang;Centre ville à côté du stade et de la piscine avenue Maurice Thorez proximité raffinage usines chimiques incinérateur déchets industriels. Terrain plat proximité Etang de Berre.;01/11/1981;;En service;Stade Roger Martin;13014;BERRE-L'ÉTANG;ZAG MARSEILLE-AIX (FR93ZAG01);ATMO SUD (05);5.171939;43.486234;6.0;World geometric system 1984;Périurbaine
FR02004;Martigues P. Central;Siège de l association. Colline ventée. Proximité industrielle usines chimiques de Lavéra.;01/10/1976;;En service;Route de la Vierge;13056;MARTIGUES;ZAG MARSEILLE-AIX (FR93ZAG01);ATMO SUD (05);5.042731;43.416661;107.0;World geometric system 1984;Urbaine
FR02006;Martigues Laurons;Station implantée dans le site de la centrale thermique EDF de Martigues PONTEAU. Proximité de la MER. Proximité du complexe industriel de Lavéra.;01/11/1976;;En service;Centrale EDF Martigues Ponteau;13056;MARTIGUES;ZAG MARSEILLE-AIX (FR93ZAG01);ATMO SUD (05);5.023388;43.358982;5.0;World geometric system 1984;Périurbaine
FR02007;Martigues La Gatasse;Col de la Gatasse sur la chaine de l Estaque. Proximité raffineries et Complexe Petrochimique de Lavera.;01/10/1976;;En service;Col de La Gatasse;13056;MARTIGUES;ZAG MARSEILLE-AIX (FR93ZAG01);ATMO SUD (05);5.058139;43.360692;124.0;World geometric system 1984;Périurbaine
FR02008;Port de Bouc Leque;Caserne des marins pompiers centre ville. Proximité de la mer. Proximité Complexe de Lavera. Proximité complexe industriel de Fos-sur-mer et Port Autonome de Marseille.;01/10/1976;;En service;Caserne des Marins Pompiers;13077;PORT-DE-BOUC;ZAG MARSEILLE-AIX (FR93ZAG01);ATMO SUD (05);4.981919;43.401952;3.0;World geometric system 1984;Urbaine
FR02009;Port Saint Louis;;01/01/1977;;En service;Stade George Berner Avenue du Port;13078;PORT-SAINT-LOUIS-DU-RHÔNE;ZAG MARSEILLE-AIX (FR93ZAG01);ATMO SUD (05);4.801024;43.39378;1.0;World geometric system 1984;Périurbaine
FR02011;Fos sur Mer;Station installée en hauteur dans la partie médiévale de Fos sur Mer. Complexe industriel de Fos-sur-mer et dépôts pétroliers à proximité. Proximité du Port Autonome de Fos (Pétrolier minéralier).;01/09/1976;;En service;Rue LHauture;13039;FOS-SUR-MER;ZAG MARSEILLE-AIX (FR93ZAG01);ATMO SUD (05);4.945116;43.437858;21.0;World geometric system 1984;Périurbaine
FR02012;Istres;Station Centre Ville dans l Ecole des Baumes. Terrain plat.;01/09/1976;;En service;Stade Nautique Parking;13047;ISTRES;ZAG MARSEILLE-AIX (FR93ZAG01);ATMO SUD (05);4.982898;43.506149;20.0;World geometric system 1984;Urbaine
FR02013;Fos Les Carabins;Station dans les nouveaux quartiers de Fos sur Mer. Installée dans l ancienne chaufferie d un gymnase. A proximité d un terrain de jeu de boules. Proximité complexe industriel et Dépôts pétroliers de Fos.;09/06/1997;;En service;Chemin du Gari;13039;FOS-SUR-MER;ZAG MARSEILLE-AIX (FR93ZAG01);ATMO SUD (05);4.934572;43.458927;4.0;World geometric system 1984;Périurbaine
FR02020;Rognac les Brets;Station construite spécialement dans une école. Proximité complexe de Berre incinérateur industriel et stockage produits pétroliers.;01/02/1982;;En service;Ecole Gerald Kraemer;13081;ROGNAC;ZAG MARSEILLE-AIX (FR93ZAG01);ATMO SUD (05);5.220046;43.510802;48.0;World geometric system 1984;Périurbaine
FR02021;Sausset les Pins;Station au 3ème étage du parc d activités et de loisirs. Zone touristique proximité de la mer. Sous les vents d une raffinerie.;01/02/1989;;En service;Avenue de la Cote Bleue;13104;SAUSSET-LES-PINS;ZAG MARSEILLE-AIX (FR93ZAG01);ATMO SUD (05);5.117696;43.331245;11.0;World geometric system 1984;Périurbaine
FR02022;Arles;;01/05/1986;;En service;7 Boulevard des Lices;13004;ARLES;ZR PROVENCE-ALPES-COTE-D-AZUR (FR93ZRE02);ATMO SUD (05);4.62921;43.675114;10.0;World geometric system 1984;Urbaine
FR02028;Martigues Lavera;;30/09/2004;;En service;Ecole Avenue Raymond Simi;13056;MARTIGUES;ZAG MARSEILLE-AIX (FR93ZAG01);ATMO SUD (05);5.026868;43.386564;49.0;World geometric system 1984;Périurbaine
FR02029;Chateauneuf La Mede;;04/04/2000;;En service;Stade Municipal Avenue St Medard;13026;CHÂTEAUNEUF-LES-MARTIGUES;ZAG MARSEILLE-AIX (FR93ZAG01);ATMO SUD (05);5.113214;43.399546;10.0;World geometric system 1984;Périurbaine
FR02041;SALON;;01/01/2013;;En service;Impasse Pierre Brossolette;13103;SALON-DE-PROVENCE;ZAG MARSEILLE-AIX (FR93ZAG01);ATMO SUD (05);5.101097;43.639002;82.0;World geometric system 1984;Urbaine
FR02043;Marignane;;02/02/2018;;En service;2 Rue de Provence;13054;MARIGNANE;ZAG MARSEILLE-AIX (FR93ZAG01);ATMO SUD (05);5.222281;43.4165306;15.0;World geometric system 1984;Urbaine
FR03006;MARSEILLE RABATAU;;16/12/1981;;En service;93 BOULEVARD RABATAU;13208;MARSEILLE 8E ARRONDISSEMENT;ZAG MARSEILLE-AIX (FR93ZAG01);ATMO SUD (05);5.39736;43.276451;17.0;World geometric system 1984;Urbaine
FR03014;MARSEILLE ST LOUIS;;23/11/1981;;En service;16 RUE LE CHATELIER;13215;MARSEILLE 15E ARRONDISSEMENT;ZAG MARSEILLE-AIX (FR93ZAG01);ATMO SUD (05);5.360119;43.348048;59.0;World geometric system 1984;Urbaine
FR03021;AIX ROY RENE;;20/04/1982;;En service;BOULEVARD DU ROI RENE;13001;AIX-EN-PROVENCE;ZAG MARSEILLE-AIX (FR93ZAG01);ATMO SUD (05);5.448164;43.524075;182.0;World geometric system 1984;Urbaine
FR03027;PLAN AUPS/STE  BAUME;;03/05/1983;;En service;Derriere la Salle Polyvalente Le Co;83093;PLAN-D'AUPS-SAINTE-BAUME;ZR PROVENCE-ALPES-COTE-D-AZUR (FR93ZRE02);ATMO SUD (05);5.727365;43.335201;682.0;World geometric system 1984;Rurale près des villes
FR03029;AIX CENTRE ECOLE ART;;09/05/1997;;En service;Rue Emile TAVAN;13001;AIX-EN-PROVENCE;ZAG MARSEILLE-AIX (FR93ZAG01);ATMO SUD (05);5.440912;43.530285;192.0;World geometric system 1984;Urbaine
FR03030;GARDANNE;;05/11/1985;;En service;Avenue Mistral dans le jardin de la;13041;GARDANNE;ZAG MARSEILLE-AIX (FR93ZAG01);ATMO SUD (05);5.466672;43.453584;203.0;World geometric system 1984;Périurbaine
FR03032;AUBAGNE LES PASSONS;;06/09/2010;;En service;chemin de la colline aux oiseaux;13005;AUBAGNE;ZAG MARSEILLE-AIX (FR93ZAG01);ATMO SUD (05);5.574184;43.293138;132.0;World geometric system 1984;Urbaine
FR03037;VALLEE HUVEAUNE;;01/07/1995;;En service;GYMNASE LA COLOMBE;13070;LA PENNE-SUR-HUVEAUNE;ZAG MARSEILLE-AIX (FR93ZAG01);ATMO SUD (05);5.511384;43.283341;74.0;World geometric system 1984;Périurbaine
FR03043;MARSEILLE 5 AVENUES;;06/06/1995;;En service;Allée Jean Louis Pons;13204;MARSEILLE 4E ARRONDISSEMENT;ZAG MARSEILLE-AIX (FR93ZAG01);ATMO SUD (05);5.394716;43.305287;73.0;World geometric system 1984;Urbaine
FR03048;AIX PLATANES;;02/06/2000;;En service;Ecole des platanes- route de sister;13001;AIX-EN-PROVENCE;ZAG MARSEILLE-AIX (FR93ZAG01);ATMO SUD (05);5.461232;43.555777;296.0;World geometric system 1984;Périurbaine
FR03060;LA SEYNE GENOUD;;01/08/2009;;En service;Avenue Aimé Genoud;83126;LA SEYNE-SUR-MER;ZAG TOULON (FR93ZAG03);ATMO SUD (05);5.875404;43.101565;8.0;World geometric system 1984;Urbaine
FR03064;LA VALETTE/LA GARDE;fermeture initiale au 28/01/2017 puis réouverture du site en 2023;17/07/1999;;En service;Avenue George Pompidou;83144;LA VALETTE-DU-VAR;ZAG TOULON (FR93ZAG03);ATMO SUD (05);6.011513;43.135902;64.0;World geometric system 1984;Périurbaine
FR03067;BRIGNOLES;;24/06/2002;;En service;Réservoir de la dîme - ancien chemi;83023;BRIGNOLES;ZR PROVENCE-ALPES-COTE-D-AZUR (FR93ZRE02);ATMO SUD (05);6.075611;43.398731;269.0;World geometric system 1984;Périurbaine
FR03068;TOULON FOCH;;01/02/2002;;En service;Avenue  Lieutenant PIANELLI;83137;TOULON;ZAG TOULON (FR93ZAG03);ATMO SUD (05);5.921605;43.126821;6.0;World geometric system 1984;Urbaine
FR03070;ESTEREL;;15/10/2015;;En service;Allée du Hameau du collège;83061;FRÉJUS;ZR PROVENCE-ALPES-COTE-D-AZUR (FR93ZRE02);ATMO SUD (05);6.76839;43.437874;5.0;World geometric system 1984;Périurbaine
FR03071;TOULON CLARET;;26/11/2016;;En service;;83137;TOULON;ZAG TOULON (FR93ZAG03);ATMO SUD (05);5.924184;43.131113;26.0;World geometric system 1984;Urbaine
FR03080;AVIGNON   MAIRIE;;16/07/1998;;En service;6 rue petite Fusterie;84007;AVIGNON;ZAG AVIGNON (FR93ZAG04);ATMO SUD (05);4.804341;43.949673;19.0;World geometric system 1984;Urbaine
FR03084;LE PONTET;;25/08/1998;;En service;Avenue Charles de Gaulle  Ecole Primaire Pas;84092;LE PONTET;ZAG AVIGNON (FR93ZAG04);ATMO SUD (05);4.856731;43.960144;21.0;World geometric system 1984;Périurbaine
FR03086;APT;;18/04/2002;;En service;route d avignon - quartier bosque;84003;APT;ZR PROVENCE-ALPES-COTE-D-AZUR (FR93ZRE02);ATMO SUD (05);5.362038;43.88012;202.0;World geometric system 1984;Périurbaine
FR03088;CARPENTRAS;;16/03/2012;;En service;1171 AVENUE DU MONT VENTOUX;84031;CARPENTRAS;ZAG AVIGNON (FR93ZAG04);ATMO SUD (05);5.067413;44.060347;115.0;World geometric system 1984;Périurbaine
FR03091;Avignon Rocade De Gaulle;;26/09/2022;;En service;Rocade Charles De Gaulle;84007;AVIGNON;ZAG AVIGNON (FR93ZAG04);ATMO SUD (05);4.826875;43.9314;21.0;World geometric system 1984;Urbaine
FR04002;GENNEVILLIERS;;08/01/1986;;En service;60 rue Richelieu;92036;GENNEVILLIERS;ZAG PARIS (FR11ZAG01);AIRPARIF (09);2.29435;48.930319;28.0;World geometric system 1984;Urbaine
FR04004;PARIS 18eme;site installé sur le toit d'un bâtiment;21/01/1986;;En service;5 rue Ferdinand Flocon;75118;PARIS 18E ARRONDISSEMENT;ZAG PARIS (FR11ZAG01);AIRPARIF (09);2.346667;48.891666;60.0;World geometric system 1984;Urbaine
FR04012;Place Victor Basch;;01/01/1991;;En service;Avenue du Général Leclerc;75114;PARIS 14E ARRONDISSEMENT;ZAG PARIS (FR11ZAG01);AIRPARIF (09);2.3275;48.827778;66.0;World geometric system 1984;Urbaine
FR04014;PARIS 12eme;PARIS 12ème;07/09/1991;;En service;18 rue de la Brèche aux Loups;75112;PARIS 12E ARRONDISSEMENT;ZAG PARIS (FR11ZAG01);AIRPARIF (09);2.3939;48.837223;40.0;World geometric system 1984;Urbaine
FR04017;NEUILLY-SUR-SEINE;;01/01/1986;;En service;11 rue du Commandant Pilot;92051;NEUILLY-SUR-SEINE;ZAG PARIS (FR11ZAG01);AIRPARIF (09);2.278056;48.88139;36.0;World geometric system 1984;Urbaine
FR04018;AUBERVILLIERS;;01/01/1988;;En service;35 rue Bordier;93001;AUBERVILLIERS;ZAG PARIS (FR11ZAG01);AIRPARIF (09);2.3847;48.9039;42.0;World geometric system 1984;Urbaine
FR04023;CERGY-PONTOISE;;25/01/2000;;En service;2 rue du Pampre d Or;95127;CERGY;ZAG PARIS (FR11ZAG01);AIRPARIF (09);2.043056;49.04639;85.0;World geometric system 1984;Urbaine
FR04024;GONESSE;;22/06/2004;;En service;Avenue Georges Kerdavid;95277;GONESSE;ZAG PARIS (FR11ZAG01);AIRPARIF (09);2.444722;48.99083;65.0;World geometric system 1984;Périurbaine
FR04029;VERSAILLES;;16/11/1990;;En service;8 rue de Limoges;78646;VERSAILLES;ZAG PARIS (FR11ZAG01);AIRPARIF (09);2.130556;48.799168;125.0;World geometric system 1984;Périurbaine
FR04031;Av Champs Elysees;Avenue des Champs Elysées;24/01/1990;;En service;Avenue des Champs Elysées;75108;PARIS 8E ARRONDISSEMENT;ZAG PARIS (FR11ZAG01);AIRPARIF (09);2.311231;48.868772;34.0;World geometric system 1984;Urbaine
FR04034;VITRY-SUR-SEINE;;23/03/1991;;En service;103 rue Paul Armangot;94081;VITRY-SUR-SEINE;ZAG PARIS (FR11ZAG01);AIRPARIF (09);2.375788;48.775897;95.0;World geometric system 1984;Urbaine
FR04037;PARIS 13eme;PARIS 13ème;19/07/1991;;En service;11 rue George Eastman;75113;PARIS 13E ARRONDISSEMENT;ZAG PARIS (FR11ZAG01);AIRPARIF (09);2.360278;48.82861;57.0;World geometric system 1984;Urbaine
FR04038;Zone Rurale SO;Zone rurale Sud-Ouest - Forêt de Rambouillet;05/09/1991;;En service;Château de Pinceloup;78601;SONCHAMP;ZR ILE-DE-FRANCE (FR11ZRE01);AIRPARIF (09);1.883333;48.581944;152.0;World geometric system 1984;Rurale régionale
FR04048;Zone Rurale Nord;Zone rurale Nord - Saint-Martin-du-Tertre;04/05/2000;;En service;Terrain de jeu - Rue Roger Salengro;95566;SAINT-MARTIN-DU-TERTRE;ZR ILE-DE-FRANCE (FR11ZRE01);AIRPARIF (09);2.343889;49.100277;140.0;World geometric system 1984;Rurale régionale
FR04049;LES ULIS;;10/05/2000;;En service;Avenue de Gascogne;91692;LES ULIS;ZAG PARIS (FR11ZAG01);AIRPARIF (09);2.165556;48.679443;159.0;World geometric system 1984;Périurbaine
FR04051;ARGENTEUIL;;25/06/1992;;En service;4 allée Henri Wallon;95018;ARGENTEUIL;ZAG PARIS (FR11ZAG01);AIRPARIF (09);2.223611;48.95139;56.0;World geometric system 1984;Urbaine
FR04055;PARIS 1er Les Halles;;28/06/2001;;En service;Jardin des Halles-Al J. Supervielle;75101;PARIS 1ER ARRONDISSEMENT;ZAG PARIS (FR11ZAG01);AIRPARIF (09);2.344616;48.86212;35.0;World geometric system 1984;Urbaine
FR04058;Auto A1 -Saint-Denis;Autoroute A1 - Saint-Denis;22/01/1993;;En service;A1 - 361 avenue du Président Wilson;93066;SAINT-DENIS;ZAG PARIS (FR11ZAG01);AIRPARIF (09);2.356667;48.925278;35.0;World geometric system 1984;Urbaine
FR04059;SAINT-DENIS;;01/01/1991;;En service;Place du Caquet;93066;SAINT-DENIS;ZAG PARIS (FR11ZAG01);AIRPARIF (09);2.361667;48.93722;31.0;World geometric system 1984;Urbaine
FR04060;PARIS 7eme;PARIS 7ème;27/02/1992;;En service;Allée des Refuzniks;75107;PARIS 7E ARRONDISSEMENT;ZAG PARIS (FR11ZAG01);AIRPARIF (09);2.2933;48.8572;31.0;World geometric system 1984;Urbaine
FR04063;MANTES-LA-JOLIE;;27/02/1992;;En service;1 rue Emile Zol;78361;MANTES-LA-JOLIE;ZAG PARIS (FR11ZAG01);AIRPARIF (09);1.7033;48.9964;32.0;World geometric system 1984;Périurbaine
FR04066;Zone rurale Sud;Zone Rurale Sud - Bois Herpin;08/07/2002;;En service;Lieu-dit Le Saut du Loup;91075;BOIS-HERPIN;ZR ILE-DE-FRANCE (FR11ZRE01);AIRPARIF (09);2.236944;48.364166;134.0;World geometric system 1984;Rurale régionale
FR04069;MELUN;;19/11/1993;;En service;62 avenue du Géneral de Gaulle;77288;MELUN;ZAG PARIS (FR11ZAG01);AIRPARIF (09);2.661389;48.54139;56.0;World geometric system 1984;Périurbaine
FR04071;Rue Bonaparte;;22/02/1994;;En service;16 rue Bonaparte;75106;PARIS 6E ARRONDISSEMENT;ZAG PARIS (FR11ZAG01);AIRPARIF (09);2.335278;48.856388;32.0;World geometric system 1984;Urbaine
FR04098;LOGNES;;12/12/2003;;En service;12-14 Cours des Lacs- Parc Mandinet;77258;LOGNES;ZAG PARIS (FR11ZAG01);AIRPARIF (09);2.635278;48.84028;80.0;World geometric system 1984;Urbaine
FR04099;NOGENT-SUR-MARNE;;12/12/2003;;En service;36 boulevard  Galliéni;94052;NOGENT-SUR-MARNE;ZAG PARIS (FR11ZAG01);AIRPARIF (09);2.484444;48.840557;88.0;World geometric system 1984;Urbaine
FR04100;VILLEMOMBLE;;13/01/2004;;En service;Rue de la Carrière Parc Garenne;93077;VILLEMOMBLE;ZAG PARIS (FR11ZAG01);AIRPARIF (09);2.507222;48.881947;85.0;World geometric system 1984;Urbaine
FR04101;CHAMPIGNY-SUR-MARNE;;14/12/2004;;En service;Rue de Bernau-Stade Nelson Mandela;94017;CHAMPIGNY-SUR-MARNE;ZAG PARIS (FR11ZAG01);AIRPARIF (09);2.5175;48.816387;74.0;World geometric system 1984;Urbaine
FR04118;Place de l'Opéra;;24/01/2011;;En service;place de l'Opéra - terre plein sud;75102;PARIS 2E ARRONDISSEMENT;ZAG PARIS (FR11ZAG01);AIRPARIF (09);2.3325;48.870274;45.0;World geometric system 1984;Urbaine
FR04122;RN6-MELUN;Route Nationale 6 - MELUN;30/10/2008;;En service;60 avenue Thiers;77288;MELUN;ZAG PARIS (FR11ZAG01);AIRPARIF (09);2.653611;48.528057;48.0;World geometric system 1984;Périurbaine
FR04123;RN2-PANTIN;Route nationale 2 - PANTIN;30/10/2008;;En service;54 avenue Jean Jaurès;93055;PANTIN;ZAG PARIS (FR11ZAG01);AIRPARIF (09);2.390833;48.90222;44.0;World geometric system 1984;Urbaine
FR04131;Boulevard Haussmann;;08/02/2010;;En service;35  Boulevard Haussmann;75109;PARIS 9E ARRONDISSEMENT;ZAG PARIS (FR11ZAG01);AIRPARIF (09);2.330278;48.873333;42.0;World geometric system 1984;Urbaine
FR04141;Quai des Celestins;Quai des Célestins;24/08/1993;;En service;28 quai des Célestins;75104;PARIS 4E ARRONDISSEMENT;ZAG PARIS (FR11ZAG01);AIRPARIF (09);2.360556;48.85278;35.0;World geometric system 1984;Urbaine
FR04142;Zone Rurale Nord-Est;Zone rurale Nord-Est - MONTGE-EN-GOELE;15/05/1993;;En service;Place de la Mairie;77308;MONTGÉ-EN-GOËLE;ZR ILE-DE-FRANCE (FR11ZRE01);AIRPARIF (09);2.750278;49.028057;162.0;World geometric system 1984;Rurale régionale
FR04149;MONTGERON;;06/06/1994;;En service;2 rue du Presbytère;91421;MONTGERON;ZAG PARIS (FR11ZAG01);AIRPARIF (09);2.4572;48.7067;68.0;World geometric system 1984;Urbaine
FR04150;LA DEFENSE;;02/05/1995;;En service;Parvis de la Défense;92062;PUTEAUX;ZAG PARIS (FR11ZAG01);AIRPARIF (09);2.240556;48.891388;58.0;World geometric system 1984;Urbaine
FR04156;BOBIGNY;;19/05/1995;;En service;Parc de la Bergère;93008;BOBIGNY;ZAG PARIS (FR11ZAG01);AIRPARIF (09);2.4525;48.902504;51.0;World geometric system 1984;Urbaine
FR04158;Zone Rurale NO;Zone rurale Nord-Ouest - FREMAINVILLE;26/02/1998;;En service;Ecole communale - Rue du Bout-Sirop;95253;FRÉMAINVILLE;ZR ILE-DE-FRANCE (FR11ZRE01);AIRPARIF (09);1.866381;49.063087;122.0;World geometric system 1984;Rurale régionale
FR04173;RD934 Coulommiers;;27/02/2013;;En service;26 avenue de Strasbourg;77131;COULOMMIERS;ZR ILE-DE-FRANCE (FR11ZRE01);AIRPARIF (09);3.084158;48.8059;73.0;World geometric system 1984;Périurbaine
FR04179;PARIS Stade Lenglen;Paris stade Lenglen;24/12/2013;;En service;1 boulevard des frères Voisin;75115;PARIS 15E ARRONDISSEMENT;ZAG PARIS (FR11ZAG01);AIRPARIF (09);2.269889;48.830387;32.0;World geometric system 1984;Urbaine
FR04180;RN20 - MONTLHERY;RN20 Montlhéry;06/12/2014;;En service;34 route d'Orléans;91425;MONTLHÉRY;ZAG PARIS (FR11ZAG01);AIRPARIF (09);2.26872;48.64093;81.0;World geometric system 1984;Périurbaine
FR04181;RAMBOUILLET;;15/12/2014;;En service;;78517;RAMBOUILLET;ZR ILE-DE-FRANCE (FR11ZRE01);AIRPARIF (09);1.830529;48.63373;164.0;World geometric system 1984;Périurbaine
FR04184;BAGNEAUX-SUR-LOING;;05/01/2016;;En service;19 Rue de la Ballastière. 77167 Bagneaux-sur-Loing;77016;BAGNEAUX-SUR-LOING;ZR ILE-DE-FRANCE (FR11ZRE01);AIRPARIF (09);2.70617777777777;48.231475;62.0;World geometric system 1984;Périurbaine
FR04185;POMMEUSE;;24/11/2016;;En service;2 Rue de la Cavée. 77515 Pommeuse;77371;POMMEUSE;ZR ILE-DE-FRANCE (FR11ZRE01);AIRPARIF (09);2.99124722222222;48.8158806;72.0;World geometric system 1984;Urbaine
FR04319;TREMBLAY-EN-FRANCE;;14/05/1998;;En service;Rue du Chemin Jaune;93073;TREMBLAY-EN-FRANCE;ZAG PARIS (FR11ZAG01);AIRPARIF (09);2.575278;48.95555;65.0;World geometric system 1984;Périurbaine
FR04323;EVRY;;17/12/1998;;En service;1 Place Mendès France;91228;ÉVRY-COURCOURONNES ;ZAG PARIS (FR11ZAG01);AIRPARIF (09);2.429167;48.62722;81.0;World geometric system 1984;Urbaine
FR04324;Zone Rurale Est;Zone rurale Est - SAINTS;06/01/1999;;En service;Rue des Buttes;77433;BEAUTHEIL-SAINTS ;ZR ILE-DE-FRANCE (FR11ZRE01);AIRPARIF (09);3.058333;48.761665;120.0;World geometric system 1984;Rurale régionale
FR04328;Zone Rurale SE;Zone rurale Sud-Est - Forêt de Fontainebleau;14/06/1999;;En service;Maison Forestière du Clos du Roi;77186;FONTAINEBLEAU;ZR ILE-DE-FRANCE (FR11ZRE01);AIRPARIF (09);2.6453;48.3547;127.0;World geometric system 1984;Rurale régionale
FR04329;Bld peripherique Est;Boulevard Périphérique Est;21/12/2012;;En service;rue Edouard Lartet;75112;PARIS 12E ARRONDISSEMENT;ZAG PARIS (FR11ZAG01);AIRPARIF (09);2.412781;48.838615;49.0;World geometric system 1984;Urbaine
FR04331;LIMAY;;30/12/2014;;En service;;78335;LIMAY;ZAG PARIS (FR11ZAG01);AIRPARIF (09);1.754142;48.985523;35.0;World geometric system 1984;Périurbaine
FR04342;Quai de la Mégisserie;site tubes passifs NO2;12/03/2018;;En service;;75101;PARIS 1ER ARRONDISSEMENT;ZAG PARIS (FR11ZAG01);AIRPARIF (09);2.346206;48.857553;33.0;World geometric system 1984;Urbaine
FR05037;Caucriauville;;01/01/1976;;En service;122 rue Andrei Sakharov;76351;LE HAVRE;ZAR LE-HAVRE (FR28ZAR01);ATMO NORMANDIE (28);0.175731;49.503906;70.0;World geometric system 1984;Urbaine
FR05040;Honfleur Sce Tech.;site d'observation spécifique jusqu'en 2021 puis intégré au réseau réglementaire;10/03/1976;;En service;not submitted;14333;HONFLEUR;ZR NORMANDIE (FR28ZRE02);ATMO NORMANDIE (28);0.2437;49.415108;24.0;World geometric system 1984;Urbaine
FR05056;Quillebeuf Phare;;19/09/1991;;En service;Place du phare;27485;QUILLEBEUF-SUR-SEINE;ZAR LE-HAVRE (FR28ZAR01);ATMO NORMANDIE (28);0.526158;49.47372;5.0;World geometric system 1984;Rurale près des villes
FR05069;Tancarville Mairie;;08/09/1997;;En service;D39;76684;TANCARVILLE;ZAR LE-HAVRE (FR28ZAR01);ATMO NORMANDIE (28);0.451756;49.487682;96.0;World geometric system 1984;Rurale près des villes
FR05070;Harfleur Ecole Coty;;15/04/1998;;En service;Place d armes;76341;HARFLEUR;ZAR LE-HAVRE (FR28ZAR01);ATMO NORMANDIE (28);0.201694;49.505;15.0;World geometric system 1984;Urbaine
FR05074;Le Havre Ec. Herriot;;28/04/1999;;En service;127 Boulevard Francois 1er;76351;LE HAVRE;ZAR LE-HAVRE (FR28ZAR01);ATMO NORMANDIE (28);0.100703;49.48963;5.0;World geometric system 1984;Urbaine
FR05078;Le Havre Massillon;;06/02/2002;;En service;rue Massillon;76351;LE HAVRE;ZAR LE-HAVRE (FR28ZAR01);ATMO NORMANDIE (28);0.142706;49.4983;3.0;World geometric system 1984;Urbaine
FR05080;Rogerville Mairie;;03/12/1999;;En service;rue Rene Coty;76533;ROGERVILLE;ZAR LE-HAVRE (FR28ZAR01);ATMO NORMANDIE (28);0.266872;49.50362;92.0;World geometric system 1984;Périurbaine
FR05081;La Cerlangue;;11/05/2001;;En service;rue de la mare des chaudières;76169;LA CERLANGUE;ZAR LE-HAVRE (FR28ZAR01);ATMO NORMANDIE (28);0.411594;49.504036;120.0;World geometric system 1984;Rurale près des villes
FR05082;Touques;;27/05/2003;;En service;Chemin du Calvaire;14699;TOUQUES;ZR NORMANDIE (FR28ZRE02);ATMO NORMANDIE (28);0.109253;49.348;45.0;World geometric system 1984;Périurbaine
FR05083;Gonfreville l Orcher;;19/07/2000;;En service;Place Jean Jaures;76305;GONFREVILLE-L'ORCHER;ZAR LE-HAVRE (FR28ZAR01);ATMO NORMANDIE (28);0.232486;49.50273;80.0;World geometric system 1984;Urbaine
FR05084;NDGravenchon Pasteur;;22/05/2003;;En service;rue Maridor jardin Immeuble Pasteur;76476;PORT-JÉRÔME-SUR-SEINE;ZAR LE-HAVRE (FR28ZAR01);ATMO NORMANDIE (28);0.571853;49.493332;35.0;World geometric system 1984;Urbaine
FR05085;Lillebonne;;16/10/2008;;En service;maison de lintercommunalité - allée;76384;LILLEBONNE;ZAR LE-HAVRE (FR28ZAR01);ATMO NORMANDIE (28);0.539036;49.512146;18.0;World geometric system 1984;Urbaine
FR05087;Maison Parc Brotonne;;19/01/2009;;En service;Maison du Parc de Brotonne - Hameau;76473;NOTRE-DAME-DE-BLIQUETUIT;ZR NORMANDIE (FR28ZRE02);ATMO NORMANDIE (28);0.758833;49.498295;10.0;World geometric system 1984;Rurale régionale
FR05088;Fécamp;;01/12/2011;;En service;Serres municipales route de la val;76259;FÉCAMP;ZR NORMANDIE (FR28ZRE02);ATMO NORMANDIE (28);0.4159;49.75;20.0;World geometric system 1984;Périurbaine
FR05089;Le Havre Lafaurie-montant;;01/02/2013;;En service;rue Georges Lafaurie (coté montant);76351;LE HAVRE;ZAR LE-HAVRE (FR28ZAR01);ATMO NORMANDIE (28);0.110903;49.500187;60.0;World geometric system 1984;Urbaine
FR05090;Le Havre ville-haute;;15/01/2015;;En service;rue Jean Weber;76351;LE HAVRE;ZAR LE-HAVRE (FR28ZAR01);ATMO NORMANDIE (28);0.100645;49.514686;92.0;World geometric system 1984;Urbaine
FR05500;Gonfreville l Orcher Côte Blanche;;05/01/2007;;En service;Côtes Blanches;76305;GONFREVILLE-L'ORCHER;ZAR LE-HAVRE (FR28ZAR01);ATMO NORMANDIE (28);0.2296;49.4989;5.0;World geometric system 1984;Urbaine
FR05501;Gonfreville Pissotière à Madame;;05/01/2007;;En service;chemin de la pissotière à Madamme;76533;ROGERVILLE;ZAR LE-HAVRE (FR28ZAR01);ATMO NORMANDIE (28);0.2531;49.4975;6.0;World geometric system 1984;Urbaine
FR05502;Quillebeuf sur Seine rue Féret;;02/01/2008;;En service;rue Féret;27485;QUILLEBEUF-SUR-SEINE;ZAR LE-HAVRE (FR28ZAR01);ATMO NORMANDIE (28);0.531;49.4675;20.0;World geometric system 1984;Rurale près des villes
FR05503;Notre Dame de Gravenchon Prevert;;02/01/2008;;En service;Allée Prévert;76476;PORT-JÉRÔME-SUR-SEINE;ZAR LE-HAVRE (FR28ZAR01);ATMO NORMANDIE (28);0.574611;49.4811;9.0;World geometric system 1984;Urbaine
FR06001;Valenciennes Acacias;;05/04/1998;;En service;Rue H. Durre;59606;VALENCIENNES;ZAG BLDV (FR32ZAG01);ATMO HAUTS DE FRANCE (34);3.50804;50.35853;43.0;World geometric system 1984;Urbaine
FR06003;Douai Theuriet;;17/07/1998;;En service;Rue des Acacias;59178;DOUAI;ZAG BLDV (FR32ZAG01);ATMO HAUTS DE FRANCE (34);3.06586;50.37822;28.0;World geometric system 1984;Urbaine
FR06006;Valenciennes Wallon;;31/08/1999;;En service;Place de la République;59606;VALENCIENNES;ZAG BLDV (FR32ZAG01);ATMO HAUTS DE FRANCE (34);3.52273;50.36425;21.0;World geometric system 1984;Urbaine
FR06007;Maubeuge Joyeuse;;29/07/1999;;En service;Rue du 145 ieme RI;59392;MAUBEUGE;ZR HAUTS-DE-FRANCE (FR32ZRE01);ATMO HAUTS DE FRANCE (34);3.97691;50.27936;133.0;World geometric system 1984;Urbaine
FR06011;Denain Villars;;20/03/2000;;En service;Rue Emile Zola - College Villars;59172;DENAIN;ZAG BLDV (FR32ZAG01);ATMO HAUTS DE FRANCE (34);3.39593;50.32276;31.5;World geometric system 1984;Périurbaine
FR06133;Cartignies;;07/07/2011;;En service;Stade municipal;59134;CARTIGNIES;ZR HAUTS-DE-FRANCE (FR32ZRE01);ATMO HAUTS DE FRANCE (34);3.85003;50.09225;151.0;World geometric system 1984;Rurale près des villes
FR06134;Saint Amand;;27/07/2011;;En service;Ruelle des Ecoles-Centre Tech Municipal;59526;SAINT-AMAND-LES-EAUX;ZAG BLDV (FR32ZAG01);ATMO HAUTS DE FRANCE (34);3.42794;50.45647;22.0;World geometric system 1984;Périurbaine
FR07004;Montferrand;;06/02/1993;;En service;Rue Gustave Courbet;63113;CLERMONT-FERRAND;ZAG CLERMONT-FERRAND (FR84ZAG04);ATMO AUVERGNE-RHÔNE-ALPES (32);3.113833;45.79728;340.0;World geometric system 1984;Urbaine
FR07009;Jardin Lecoq;;02/01/2003;;En service;Jardin Lecoq;63113;CLERMONT-FERRAND;ZAG CLERMONT-FERRAND (FR84ZAG04);ATMO AUVERGNE-RHÔNE-ALPES (32);3.0875;45.772167;390.0;World geometric system 1984;Urbaine
FR07022;Paray le Fresil;;30/05/2002;;En service;Stade de football;03203;PARAY-LE-FRÉSIL;ZR AUVERGNE-RHONE-ALPES (FR84ZRE02);ATMO AUVERGNE-RHÔNE-ALPES (32);3.600667;46.652668;235.0;World geometric system 1984;Rurale régionale
FR07028;Les Ancizes;station servant dans le cadre d'un partenariat avec industriel;15/11/2003;;En service;Rue du College;63004;LES ANCIZES-COMPS;ZR AUVERGNE-RHONE-ALPES (FR84ZRE02);ATMO AUVERGNE-RHÔNE-ALPES (32);2.829806;45.929333;720.0;World geometric system 1984;Périurbaine
FR07031;Rageade;;02/04/2004;;En service;Mairie;15158;RAGEADE;ZR AUVERGNE-RHONE-ALPES (FR84ZRE02);ATMO AUVERGNE-RHÔNE-ALPES (32);3.277361;45.10472;1040.0;World geometric system 1984;Rurale régionale
FR07051;Beaulieu;;02/03/2015;;En service;Chemin du Petit Gandaillat;63113;CLERMONT-FERRAND;ZAG CLERMONT-FERRAND (FR84ZAG04);ATMO AUVERGNE-RHÔNE-ALPES (32);3.155;45.769;344.0;World geometric system 1984;Périurbaine
FR07052;Aurillac-Lagarde;;28/12/2015;;En service;Henry Dunant;15014;AURILLAC;ZR AUVERGNE-RHONE-ALPES (FR84ZRE02);ATMO AUVERGNE-RHÔNE-ALPES (32);2.441082;44.92008;640.0;World geometric system 1984;Urbaine
FR07053;Edouard Michelin;;06/11/2015;;En service;98, avenue Edouard Michelin;63113;CLERMONT-FERRAND;ZAG CLERMONT-FERRAND (FR84ZAG04);ATMO AUVERGNE-RHÔNE-ALPES (32);3.111592;45.780434;354.0;World geometric system 1984;Urbaine
FR07054;Le Puy-Causans;;17/02/2015;;En service;Stade Le Causans - Rue de la Fonderie;43157;LE PUY-EN-VELAY;ZR AUVERGNE-RHONE-ALPES (FR84ZRE02);ATMO AUVERGNE-RHÔNE-ALPES (32);3.887001;45.039001;629.0;World geometric system 1984;Urbaine
FR07056;Pays du Mezenc;;08/09/2016;;En service;;43092;FAY-SUR-LIGNON;ZR AUVERGNE-RHONE-ALPES (FR84ZRE02);ATMO AUVERGNE-RHÔNE-ALPES (32);4.226006;44.98377;1191.0;World geometric system 1984;Rurale régionale
FR07057;Moulins Centre;;13/12/2016;;En service;;03190;MOULINS;ZR AUVERGNE-RHONE-ALPES (FR84ZRE02);ATMO AUVERGNE-RHÔNE-ALPES (32);3.34063888888888;46.5619722;221.0;World geometric system 1984;Urbaine
FR07058;Montluçon;;01/01/2017;;En service;;03185;MONTLUÇON;ZR AUVERGNE-RHONE-ALPES (FR84ZRE02);ATMO AUVERGNE-RHÔNE-ALPES (32);2.593945;46.340723;203.0;World geometric system 1984;Urbaine
FR07059;Vichy;;26/01/2018;;En service;;03310;VICHY;ZR AUVERGNE-RHONE-ALPES (FR84ZRE02);ATMO AUVERGNE-RHÔNE-ALPES (32);3.425694;46.130431;257.0;World geometric system 1984;Urbaine
FR07060;Royat Périurbaine;Remplacement de la station 07001 (déplacement à environ 60m);11/01/2018;;En service;16 Boulevard Jean Baptiste Romeuf;63308;ROYAT;ZAG CLERMONT-FERRAND (FR84ZAG04);ATMO AUVERGNE-RHÔNE-ALPES (32);3.046111;45.764111;519.0;World geometric system 1984;Périurbaine
FR07061;Riom Périurbaine;Remplacement de la station 07032 Riom;19/12/2018;;En service;;63300;RIOM;ZAG CLERMONT-FERRAND (FR84ZAG04);ATMO AUVERGNE-RHÔNE-ALPES (32);3.122254;45.89674;329.0;World geometric system 1984;Périurbaine
FR08003;Montpellier Chaptal;Trottoir d'une cole;01/01/1986;;En service;9  boulevard des Arceaux;34172;MONTPELLIER;ZAG MONTPELLIER (FR76ZAG02);ATMO OCCITANIE (29);3.86626;43.611302;42.0;World geometric system 1984;Urbaine
FR08004;Montpellier St Denis;Situee sur un boulevard  trois voies de circulation dans une rue canyon  proximite immdiate d'un carrefour important.;01/12/1986;;En service;Avenue Georges Clemenceau;34172;MONTPELLIER;ZAG MONTPELLIER (FR76ZAG02);ATMO OCCITANIE (29);3.87464;43.6051;55.0;World geometric system 1984;Urbaine
FR08016;Montpellier Prés d'Arènes;Parking d'une école.;06/08/1998;;En service;rue de la Bandido;34172;MONTPELLIER;ZAG MONTPELLIER (FR76ZAG02);ATMO OCCITANIE (29);3.88681;43.5915;23.0;World geometric system 1984;Urbaine
FR08017;Montpellier Périurbaine Sud (Lattes);Dans un lotissement dans une rue  desserte locale.;12/08/1999;;En service;rue de Camélias;34129;LATTES;ZAG MONTPELLIER (FR76ZAG02);ATMO OCCITANIE (29);3.9118;43.5705;6.0;World geometric system 1984;Périurbaine
FR08018;Montpellier St Gely;Dans le cours d'une cole dans un quartier rsidentiel.;26/04/2000;;En service;rue de la Rompude;34255;SAINT-GÉLY-DU-FESC;ZAG MONTPELLIER (FR76ZAG02);ATMO OCCITANIE (29);3.80021;43.6926;128.0;World geometric system 1984;Périurbaine
FR08020;Lunel Viel;Cabine installée dans un complexe sportif (stade de foot).;10/11/1999;;En service;Rue du Stade;34146;LUNEL-VIEL;ZR OCCITANIE (FR76ZRE01);ATMO OCCITANIE (29);4.08838;43.6758;15.0;World geometric system 1984;Périurbaine
FR08022;Agathois-piscénois;Dans un jardin public  5 m d'une desserte locale dans un quartier rsidentiel .;06/07/2001;;En service;Rue Labech;34003;AGDE;ZR OCCITANIE (FR76ZRE01);ATMO OCCITANIE (29);3.50484;43.2875;19.0;World geometric system 1984;Périurbaine
FR08023;Biterrois-Narbonnais;sur un terrain de sport  à l'écart du vilage de Corneilhan.;20/05/2003;;En service;chemin Chartreuse;34084;CORNEILHAN;ZR OCCITANIE (FR76ZRE01);ATMO OCCITANIE (29);3.18878;43.4068;76.0;World geometric system 1984;Rurale régionale
FR08030;Pompignane;A l'est de Montpellier en bordure de l'avenue de la Pompignane et de la pntrante Pierre Mendez France;16/01/2008;;En service;501 avenue de la Pompignane;34172;MONTPELLIER;ZAG MONTPELLIER (FR76ZAG02);ATMO OCCITANIE (29);3.89878;43.6096;17.0;World geometric system 1984;Urbaine
FR08209;Gard Rhodanien2;Sur le parking du stade du village de saze. Au Nord de la centrale EDF d'Aramon.;10/03/1994;;En service;Chemin du Stade;30315;SAZE;ZR OCCITANIE (FR76ZRE01);ATMO OCCITANIE (29);4.67958;43.9426;87.0;World geometric system 1984;Rurale près des villes
FR08614;Nimes Gauzy;Cours d'une cantine d'cole dans un quartier rsidentiel.;23/12/1997;;En service;Rue de Tunis;30189;NÎMES;ZAR NIMES (FR76ZAR02);ATMO OCCITANIE (29);4.3744;43.8344;42.0;World geometric system 1984;Urbaine
FR08616;Nimes Planas;Au rond-point Planas au pied des arcades de la voie de chemin de fer.;02/01/2001;;En service;Place du 19 mars 1962;30189;NÎMES;ZAR NIMES (FR76ZAR02);ATMO OCCITANIE (29);4.36199;43.8299;40.0;World geometric system 1984;Urbaine
FR08617;Nimes La Calmette;Sur le terrain de sport.;04/06/2004;;En service;Rue du Moulin à vent;30061;LA CALMETTE;ZAR NIMES (FR76ZAR02);ATMO OCCITANIE (29);4.26581;43.9254;76.0;World geometric system 1984;Périurbaine
FR08712;Perpignan St Esteve;Dans l'enceinte du stade.;20/07/2001;;En service;Avenue Baxas;66172;SAINT-ESTÈVE;ZAR PERPIGNAN (FR76ZAR01);ATMO OCCITANIE (29);2.83988;42.7198;60.0;World geometric system 1984;Périurbaine
FR08714;Perpignan Les Carmes;Dans l'ancien poste de garde de l'ancienne caserne.;15/12/1999;;En service;Rue Waldeck Rousseau;66136;PERPIGNAN;ZAR PERPIGNAN (FR76ZAR01);ATMO OCCITANIE (29);2.90053;42.6955;48.0;World geometric system 1984;Urbaine
FR09003;place de VERDUN;;01/01/1992;;En service;;17300;LA ROCHELLE;ZR NOUVELLE-AQUITAINE (FR75ZRE02);ATMO NOUVELLE-AQUITAINE (30);-1.153684;46.162647;10.0;World geometric system 1984;Urbaine
FR09008;Aytré;;01/11/1994;;En service;;17028;AYTRÉ;ZR NOUVELLE-AQUITAINE (FR75ZRE02);ATMO NOUVELLE-AQUITAINE (30);-1.117086;46.135134;10.0;World geometric system 1984;Périurbaine
FR09015;Les Couronneries;;06/08/1997;;En service;;86194;POITIERS;ZR NOUVELLE-AQUITAINE (FR75ZRE02);ATMO NOUVELLE-AQUITAINE (30);0.358458;46.586958;119.0;World geometric system 1984;Urbaine
FR09103;Square Pablo Casals;;25/10/2004;;En service;;16015;ANGOULÊME;ZR NOUVELLE-AQUITAINE (FR75ZRE02);ATMO NOUVELLE-AQUITAINE (30);0.167162;45.647428;83.0;World geometric system 1984;Urbaine
FR09106;ANGOULEME-GAMBETTA;Angoulême trafic - Avenue Gambetta;18/12/2014;;En service;Rue GAMBETTA;16015;ANGOULÊME;ZR NOUVELLE-AQUITAINE (FR75ZRE02);ATMO NOUVELLE-AQUITAINE (30);0.162391;45.651464;64.0;World geometric system 1984;Urbaine
FR09203;La Pallice3 LR;;19/01/2012;;En service;;17300;LA ROCHELLE;ZR NOUVELLE-AQUITAINE (FR75ZRE02);ATMO NOUVELLE-AQUITAINE (30);-1.211229;46.161632;10.0;World geometric system 1984;Urbaine
FR09208;LA ROCHELLE-La Pallice-Saint-Francois;;05/09/2023;;En service;5 rue René Caille;17300;LA ROCHELLE;ZR NOUVELLE-AQUITAINE (FR75ZRE02);ATMO NOUVELLE-AQUITAINE (30);-1.214342;46.162204;8.0;World geometric system 1984;Urbaine
FR09302;Zoodyssée Chizé;;06/05/2009;;En service;Zoodyssée;79350;VILLIERS-EN-BOIS;ZR NOUVELLE-AQUITAINE (FR75ZRE02);ATMO NOUVELLE-AQUITAINE (30);-0.395913;46.143234;93.0;World geometric system 1984;Rurale régionale
FR09303;Niort Venise;;10/12/2019;;En service;Ecole Jule Ferry;79191;NIORT;ZR NOUVELLE-AQUITAINE (FR75ZRE02);ATMO NOUVELLE-AQUITAINE (30);-0.482861;46.320028;19.0;World geometric system 1984;Urbaine
FR09304;AIRVAULT - Stade Laillé;;09/02/2021;;En service;;79005;AIRVAULT ;ZR NOUVELLE-AQUITAINE (FR75ZRE02);ATMO NOUVELLE-AQUITAINE (30);-0.135634;46.823796;100.0;World geometric system 1984;Périurbaine
FR09305;Niort - Tassigny;;01/01/2022;;En service;;79191;NIORT;ZR NOUVELLE-AQUITAINE (FR75ZRE02);ATMO NOUVELLE-AQUITAINE (30);-0.471878;46.333881;23.0;World geometric system 1984;Urbaine
FR09403;Poitiers-Le Nain;;10/01/2017;;En service;rue de l intendant le Nain;86194;POITIERS;ZR NOUVELLE-AQUITAINE (FR75ZRE02);ATMO NOUVELLE-AQUITAINE (30);0.34039;46.591231;77.0;World geometric system 1984;Urbaine
FR09404;Poitiers Centre  Augouard;Poitiers centre - Rue monseigneur Prosper Augouard ;29/07/2013;;En service;;86194;POITIERS;ZR NOUVELLE-AQUITAINE (FR75ZRE02);ATMO NOUVELLE-AQUITAINE (30);0.345582;46.583998;110.0;World geometric system 1984;Urbaine
FR10004;Malo-les-Bains;;17/09/2007;;En service;1540 bd de la République-Lycee Angellier;59183;DUNKERQUE;ZAR COTE-D-OPALE (FR32ZAR01);ATMO HAUTS DE FRANCE (34);2.42004;51.04858;8.5;World geometric system 1984;Urbaine
FR10012;Mardyck;;01/01/1992;;En service;Place de l Eglise-Ecole Pollet;59183;DUNKERQUE;ZAR COTE-D-OPALE (FR32ZAR01);ATMO HAUTS DE FRANCE (34);2.25099;51.01943;1.0;World geometric system 1984;Périurbaine
FR10016;Calais Berthelot;;22/12/2007;;En service;224 bd Gambetta;62193;CALAIS;ZAR COTE-D-OPALE (FR32ZAR01);ATMO HAUTS DE FRANCE (34);1.84308;50.94729;4.2;World geometric system 1984;Urbaine
FR10017;St Pol mer - cheminots;site évaluant l'exposition de la population urbaine à SO2. NOx. O3. PM10;01/01/2018;;En service;15 Rue des Roses;59183;DUNKERQUE;ZAR COTE-D-OPALE (FR32ZAR01);ATMO HAUTS DE FRANCE (34);2.332358;51.032761;4.0;World geometric system 1984;Urbaine
FR10025;Sangatte;;02/11/2000;;En service; 767 Rue Nationale-Stade Municipal;62774;SANGATTE;ZAR COTE-D-OPALE (FR32ZAR01);ATMO HAUTS DE FRANCE (34);1.76917;50.94989;3.0;World geometric system 1984;Périurbaine
FR10026;Calais Parmentier;;01/01/2009;;En service;Grande rue du Petit Courgain-Ecole Parmentier ;62193;CALAIS;ZAR COTE-D-OPALE (FR32ZAR01);ATMO HAUTS DE FRANCE (34);1.89008;50.9578;3.0;World geometric system 1984;Urbaine
FR10028;Gravelines PC/Drire;;19/03/2009;;En service;rue du Pont de Pierre;59273;GRAVELINES;ZAR COTE-D-OPALE (FR32ZAR01);ATMO HAUTS DE FRANCE (34);2.14317;50.98106;3.0;World geometric system 1984;Périurbaine
FR10029;Cappelle la Grande;;17/12/2008;;En service;Rue du Planetarium-Palais de l univers;59131;CAPPELLE-LA-GRANDE;ZAR COTE-D-OPALE (FR32ZAR01);ATMO HAUTS DE FRANCE (34);2.36627;50.99594;3.0;World geometric system 1984;Périurbaine
FR10030;Boulogne Diderot;;20/01/2016;;En service;Boulevard Diderot;62160;BOULOGNE-SUR-MER;ZAR COTE-D-OPALE (FR32ZAR01);ATMO HAUTS DE FRANCE (34);1.605913;50.717029;7.0;World geometric system 1984;Urbaine
FR10032;Outreau;;04/07/2001;;En service;Boulevard Raymond Splingard;62643;OUTREAU;ZAR COTE-D-OPALE (FR32ZAR01);ATMO HAUTS DE FRANCE (34);1.57657;50.69435;58.0;World geometric system 1984;Périurbaine
FR10034;Grande-synthe;;23/07/2009;;En service;4 rue du Comte Jean-jardins communaux;59271;GRANDE-SYNTHE;ZAR COTE-D-OPALE (FR32ZAR01);ATMO HAUTS DE FRANCE (34);2.30215;51.02446;3.0;World geometric system 1984;Urbaine
FR10041;St Omer Ribot;;06/03/2006;;En service;42 rue Gambetta;62765;SAINT-OMER;ZAR COTE-D-OPALE (FR32ZAR01);ATMO HAUTS DE FRANCE (34);2.25978;50.74823;12.0;World geometric system 1984;Urbaine
FR10132;Campagne les B.;;01/06/2011;;En service;Stade municipal;62202;CAMPAGNE-LÈS-BOULONNAIS;ZR HAUTS-DE-FRANCE (FR32ZRE01);ATMO HAUTS DE FRANCE (34);1.99145;50.61048;170.0;World geometric system 1984;Rurale régionale
FR11007;Lille Leeds;;15/06/2016;;En service;253 Boulevard de Leeds, 59800 Lille;59350;LILLE;ZAG LILLE (FR32ZAG02);ATMO HAUTS DE FRANCE (34);3.074772;50.6407944;20.0;World geometric system 1984;Urbaine
FR11016;Marcq CTM;Marcq en Baroeul;05/08/1993;;En service;29 Rue de Menin-Centre Tech Municipal;59378;MARCQ-EN-BARŒUL;ZAG LILLE (FR32ZAG02);ATMO HAUTS DE FRANCE (34);3.07656;50.67003;19.0;World geometric system 1984;Urbaine
FR11026;Halluin stade;;01/01/2003;;En service;Avenue du Stade-Stade Wancquet;59279;HALLUIN;ZAG LILLE (FR32ZAG02);ATMO HAUTS DE FRANCE (34);3.12568;50.775482;24.0;World geometric system 1984;Périurbaine
FR11034;Roubaix Serres;;01/04/2001;;En service;Serres municipales de Roubaix;59512;ROUBAIX;ZAG LILLE (FR32ZAG02);ATMO HAUTS DE FRANCE (34);3.18066;50.706535;31.0;World geometric system 1984;Urbaine
FR11038;Tourcoing Houpline;station dans l'enceinte d'un stade, groupe scolaire Sévigné et collège St Gabriel à proximité;27/01/2023;;En service;;59599;TOURCOING;ZAG LILLE (FR32ZAG02);ATMO HAUTS DE FRANCE (34);3.173611;50.733333;42.0;World geometric system 1984;Urbaine
FR11114;Wattignies;;27/05/2015;;En service;Rue Jules Ferry-Ecole de musique;59648;WATTIGNIES;ZAG LILLE (FR32ZAG02);ATMO HAUTS DE FRANCE (34);3.04946;50.59774;51.0;World geometric system 1984;Périurbaine
FR12004;ECOLE M.JACQUIER;station urbaine SUD de TOULOUSE;10/02/1994;;En service;Rue du Poitou;31555;TOULOUSE;ZAG TOULOUSE (FR76ZAG01);ATMO OCCITANIE (29);1.418064;43.575694;144.0;World geometric system 1984;Urbaine
FR12015;MIRAMONT;surveillance papeterie (sous le vent de l'usine);01/01/1997;;En service;;31344;MIRAMONT-DE-COMMINGES;ZR OCCITANIE (FR76ZRE01);ATMO OCCITANIE (29);0.743611;43.093611;355.0;World geometric system 1984;Urbaine
FR12016;DAURAT ST GAUDENS;surveillance papeterie (centre ville de l'agglomération St Gaudens);01/01/1997;;En service;;31483;SAINT-GAUDENS;ZR OCCITANIE (FR76ZRE01);ATMO OCCITANIE (29);0.71955;43.106156;408.0;World geometric system 1984;Urbaine
FR12020;PEYRUSSE;site MERA;01/01/1997;;En service;;32317;PEYRUSSE-VIEILLE;ZR OCCITANIE (FR76ZRE01);ATMO OCCITANIE (29);0.179069;43.6287;230.0;World geometric system 1984;Rurale nationale
FR12021;Toulouse Mazades;station urbaine NORD de TOULOUSE;13/01/1997;;En service;10 av Mazades;31555;TOULOUSE;ZAG TOULOUSE (FR76ZAG01);ATMO OCCITANIE (29);1.438531;43.623606;144.0;World geometric system 1984;Urbaine
FR12026;ALBI DELMAS;station urbaine plein centre ville d'ALBI;03/09/1998;;En service;square Delmas;81004;ALBI;ZR OCCITANIE (FR76ZRE01);ATMO OCCITANIE (29);2.145897;43.927769;181.0;World geometric system 1984;Urbaine
FR12029;GAUDONVILLE;surveillance ozone Sud Est de Toulouse (50 km);19/06/1998;;En service;Mairie de Gaudonville;32139;GAUDONVILLE;ZR OCCITANIE (FR76ZRE01);ATMO OCCITANIE (29);0.845617;43.883933;217.0;World geometric system 1984;Rurale régionale
FR12030;Toulouse Berthelot;station urbaine plein centre ville Toulouse;28/12/1998;;En service;Rue Viadieu;31555;TOULOUSE;ZAG TOULOUSE (FR76ZAG01);ATMO OCCITANIE (29);1.444003;43.587344;146.0;World geometric system 1984;Urbaine
FR12031;BELESTA EN LAURAGAIS;;26/07/1999;;En service;Salle des fêtes;31060;BÉLESTA-EN-LAURAGAIS;ZR OCCITANIE (FR76ZRE01);ATMO OCCITANIE (29);1.821944;43.44139;250.0;World geometric system 1984;Rurale régionale
FR12039;EISENHOWER SETMI;suivi autour incinérateur de Toulouse;02/07/2003;;En service;av Eisenhower;31555;TOULOUSE;ZAG TOULOUSE (FR76ZAG01);ATMO OCCITANIE (29);1.393261;43.561581;159.0;World geometric system 1984;Urbaine
FR12040;CHAPITRE SETMI;suivi autour incinérateur de Toulouse;18/07/2003;;En service;zone du chapitre;31555;TOULOUSE;ZAG TOULOUSE (FR76ZAG01);ATMO OCCITANIE (29);1.403964;43.556375;147.0;World geometric system 1984;Urbaine
FR12041;SICOVAL;;25/06/2003;;En service;centre de loisirs;31381;MONTGISCARD;ZAG TOULOUSE (FR76ZAG01);ATMO OCCITANIE (29);1.571469;43.457306;194.0;World geometric system 1984;Périurbaine
FR12042;LOURDES LAPACCA;;16/06/2004;;En service;2 rue Martyrs de la déportation;65286;LOURDES;ZR OCCITANIE (FR76ZRE01);ATMO OCCITANIE (29);-0.040497;43.096247;403.0;World geometric system 1984;Urbaine
FR12044;Toulouse aéroport côté trafic;aéroport Toulouse-Blagnac station côté trafic;08/04/2005;;En service;;31069;BLAGNAC;ZAG TOULOUSE (FR76ZAG01);ATMO OCCITANIE (29);1.375717;43.633478;149.0;World geometric system 1984;Urbaine
FR12047;BESSIERES ECONOTRE;suivi autour incinérateur ;25/07/2005;;En service;Chemin du port de l aouquo;31066;BESSIÈRES;ZR OCCITANIE (FR76ZRE01);ATMO OCCITANIE (29);1.595475;43.803139;106.0;World geometric system 1984;Rurale près des villes
FR12050;VIVIEZ-Place du 8 Mai;;04/01/2010;;En service;;12305;VIVIEZ;ZR OCCITANIE (FR76ZRE01);ATMO OCCITANIE (29);2.226169;44.560544;200.0;World geometric system 1984;Urbaine
FR12052;Tarbes lycée Dupuy;Station de mesures au lycée Dupuy de Tarbes;15/12/2010;;En service;Rue de traynes;65440;TARBES;ZR OCCITANIE (FR76ZRE01);ATMO OCCITANIE (29);0.062339;43.230297;312.0;World geometric system 1984;Urbaine
FR12053;Stade Travet CASTRES;;15/03/2011;;En service;stade du Travet;81065;CASTRES;ZR OCCITANIE (FR76ZRE01);ATMO OCCITANIE (29);2.23015;43.610497;183.0;World geometric system 1984;Urbaine
FR12054;TRAFIC_TOULOUSE;Station trafic au 217 route d Albi à Toulouse;14/11/2012;;En service;217 route d Albi;31555;TOULOUSE;ZAG TOULOUSE (FR76ZAG01);ATMO OCCITANIE (29);1.468244;43.643944;149.0;World geometric system 1984;Urbaine
FR12085;Toulouse Port de l'Embouchure;Le port ne présente aucune activité notable en termes d'émissions de polluants atmosphériques. Il s'agit du port reliant le canal du Midi au canal Latéral avec rarement plus de 4 péniches en stationnement.;18/01/2016;;En service;Port de l Embouchure;31555;TOULOUSE;ZAG TOULOUSE (FR76ZAG01);ATMO OCCITANIE (29);1.4152;43.610386;147.0;World geometric system 1984;Urbaine
FR12095;Rodez;;01/01/2020;;En service;;12202;RODEZ;ZR OCCITANIE (FR76ZRE01);ATMO OCCITANIE (29);2.57070422;44.35699225;587.0;World geometric system 1984;Urbaine
FR14008;REVIN;site MERA;01/01/1989;;En service;Bassin des Marquisades;08284;LES MAZURES;ZR GRAND-EST (FR44ZRE01);ATMO GRAND EST (31);4.63;49.90778;394.0;World geometric system 1984;Rurale nationale
FR14010;BETHENY;;17/10/2005;;En service;19 Allée des paquerettes;51055;BÉTHENY;ZAR REIMS (FR44ZAR01);ATMO GRAND EST (31);4.051111;49.28222;91.0;World geometric system 1984;Périurbaine
FR14011;DOUMER;;11/01/2013;;En service;rue Doumer;51454;REIMS;ZAR REIMS (FR44ZAR01);ATMO GRAND EST (31);4.023064;49.250732;80.0;World geometric system 1984;Urbaine
FR14012;Jean d Aulan;;19/12/2008;;En service;rue Jean d Aulan;51454;REIMS;ZAR REIMS (FR44ZAR01);ATMO GRAND EST (31);4.020556;49.224167;96.0;World geometric system 1984;Urbaine
FR14022;CHALONS;;01/06/2006;;En service;Rue du Général Jansen;51108;CHÂLONS-EN-CHAMPAGNE;ZR GRAND-EST (FR44ZRE01);ATMO GRAND EST (31);4.36;48.962223;86.0;World geometric system 1984;Urbaine
FR14028;Rempart Perrier;;22/01/2014;;En service;Bd Rempart Perrier;51230;ÉPERNAY;ZR GRAND-EST (FR44ZRE01);ATMO GRAND EST (31);3.955911;49.0461;74.0;World geometric system 1984;Urbaine
FR14031;Troyes La Tour ;;14/06/1999;;En service;1 rue de la Tour;10387;TROYES;ZR GRAND-EST (FR44ZRE01);ATMO GRAND EST (31);4.076944;48.301666;109.0;World geometric system 1984;Urbaine
FR14032;ST PARRES AUX TERTRE;;14/06/1999;;En service;Rue Henri Berthelot;10357;SAINT-PARRES-AUX-TERTRES;ZR GRAND-EST (FR44ZRE01);ATMO GRAND EST (31);4.117222;48.299168;122.0;World geometric system 1984;Périurbaine
FR14033;STE SAVINE;;01/10/1999;;En service;Rue Jules Ferry;10362;SAINTE-SAVINE;ZR GRAND-EST (FR44ZRE01);ATMO GRAND EST (31);4.050278;48.295002;119.0;World geometric system 1984;Urbaine
FR14042;St DIZIER L. Michel;;15/01/2010;;En service;Allée Louise Michel;52448;SAINT-DIZIER;ZR GRAND-EST (FR44ZRE01);ATMO GRAND EST (31);4.966111;48.645836;151.0;World geometric system 1984;Urbaine
FR14048;HAP Bourbonne;site de prélèvements;17/03/2008;;En service;Parc de la Mairie;52060;BOURBONNE-LES-BAINS;ZR GRAND-EST (FR44ZRE01);ATMO GRAND EST (31);5.7491;47.9542;277.0;World geometric system 1984;Périurbaine
FR14051;CHARLEVILLE;;20/02/2009;;En service;Rue de la Ronde Couture;08105;CHARLEVILLE-MÉZIÈRES;ZR GRAND-EST (FR44ZRE01);ATMO GRAND EST (31);4.719167;49.745277;160.0;World geometric system 1984;Urbaine
FR14801;Métaux BSN;;23/01/2008;;En service;Rue Saint-Léonard;51454;REIMS;ZAR REIMS (FR44ZAR01);ATMO GRAND EST (31);4.056939;49.233612;90.0;World geometric system 1984;Périurbaine
FR15013;Champ sur Drac;;04/01/1985;;En service;;38071;CHAMP-SUR-DRAC;ZAG GRENOBLE (FR84ZAG02);ATMO AUVERGNE-RHÔNE-ALPES (32);5.728653;45.07954;267.0;World geometric system 1984;Périurbaine
FR15018;Voiron Urbain;;25/11/2010;;En service;Rue Maubec;38563;VOIRON;ZAG GRENOBLE (FR84ZAG02);ATMO AUVERGNE-RHÔNE-ALPES (32);5.589419;45.360176;286.0;World geometric system 1984;Urbaine
FR15031;Le Casset2;site MERA;15/01/1997;;En service;;05079;LE MONÊTIER-LES-BAINS;ZR PROVENCE-ALPES-COTE-D-AZUR (FR93ZRE02);ATMO AUVERGNE-RHÔNE-ALPES (32);6.4694;44.997;1750.0;World geometric system 1984;Rurale nationale
FR15038;St Martin d'Heres;;25/08/1998;;En service;Parc Daniel Casanova;38421;SAINT-MARTIN-D'HÈRES;ZAG GRENOBLE (FR84ZAG02);ATMO AUVERGNE-RHÔNE-ALPES (32);5.7531;45.1828;219.0;World geometric system 1984;Urbaine
FR15043;Grenoble Les Frenes;;30/01/2001;;En service;Ecole Maternelle Les Frênes;38185;GRENOBLE;ZAG GRENOBLE (FR84ZAG02);ATMO AUVERGNE-RHÔNE-ALPES (32);5.7356;45.1619;219.0;World geometric system 1984;Urbaine
FR15045;Grenoble PeriurbSud;;16/01/2008;;En service;Allée traversière;38545;VIF;ZAG GRENOBLE (FR84ZAG02);ATMO AUVERGNE-RHÔNE-ALPES (32);5.6767;45.0578;310.0;World geometric system 1984;Périurbaine
FR15046;Grenoble Boulevards;;03/01/2007;;En service;46 boulevard Maréchal Foch;38185;GRENOBLE;ZAG GRENOBLE (FR84ZAG02);ATMO AUVERGNE-RHÔNE-ALPES (32);5.720625;45.18069;218.0;World geometric system 1984;Urbaine
FR15048;Gresivaudan Periurb;;08/01/2008;;En service;Rue Léo Lagrange;38140;CROLLES;ZAG GRENOBLE (FR84ZAG02);ATMO AUVERGNE-RHÔNE-ALPES (32);5.8822;45.2797;260.0;World geometric system 1984;Périurbaine
FR15053;Rocade Sud Eybens;Remplacement du site Le Rondeau FR15039;21/12/2020;;En service;;38158;EYBENS;ZAG GRENOBLE (FR84ZAG02);ATMO AUVERGNE-RHÔNE-ALPES (32);5.74523;45.15467;223.0;World geometric system 1984;Urbaine
FR16001;Strasbourg Ouest;;18/10/1994;;En service;5 Rue de Madrid;67447;SCHILTIGHEIM;ZAG STRASBOURG (FR44ZAG01);ATMO GRAND EST (31);7.708917;48.608818;148.0;World geometric system 1984;Périurbaine
FR16017;Nord-Est Alsace;;15/11/1986;;En service;Rue du Rhin-Salle Polyvalente;67308;MUNCHHAUSEN;ZR GRAND-EST (FR44ZRE01);ATMO GRAND EST (31);8.158458;48.919357;114.0;World geometric system 1984;Rurale régionale
FR16029;Strasbourg Nord;;29/08/1996;;En service;rue de la papeterie;67482;STRASBOURG;ZAG STRASBOURG (FR44ZAG01);ATMO GRAND EST (31);7.781631;48.610363;114.0;World geometric system 1984;Urbaine
FR16031;Vosges du Nord;;01/01/1991;;En service;1 rue du chateau;67371;LA PETITE-PIERRE;ZR GRAND-EST (FR44ZRE01);ATMO GRAND EST (31);7.314175;48.85731;340.0;World geometric system 1984;Rurale régionale
FR16034;Strasbourg Clemenceau;;01/12/1998;;En service;Angle Faubourg de Pierre - Bd Clemenceau;67482;STRASBOURG;ZAG STRASBOURG (FR44ZAG01);ATMO GRAND EST (31);7.744983;48.59043;139.0;World geometric system 1984;Urbaine
FR16041;Strasbourg Sud 2;;30/09/2008;;En service;Rue de l'Ehn;67152;GEISPOLSHEIM;ZAG STRASBOURG (FR44ZAG01);ATMO GRAND EST (31);7.687819;48.5157;144.0;World geometric system 1984;Périurbaine
FR16054;Colmar Centre;;15/09/1989;;En service;7 rue Bruart;68066;COLMAR;ZR GRAND-EST (FR44ZRE01);ATMO GRAND EST (31);7.3505555;48.0744444;195.0;World geometric system 1984;Urbaine
FR16057;Mulhouse Nord;;15/09/1989;01/01/2025;En service;30 Rue Lefèbvre-Services techniques;68224;MULHOUSE;ZR GRAND-EST (FR44ZRE01);ATMO GRAND EST (31);7.347294;47.757435;236.0;World geometric system 1984;Urbaine
FR16059;Chalampé;Située au centre d' une commune rurale et à 17km au NO de  Mulhouse..L' objectif de ce site est de fournir des informations sur les concentrations ou dépôts représentatives du niveau maximum de pollution induit par la proximité d' une SOURCE industrielle.;15/09/1989;;En service;Rue de la premiere Armée-grpe scolaire;68064;CHALAMPÉ;ZR GRAND-EST (FR44ZRE01);ATMO GRAND EST (31);7.538683;47.820248;218.0;World geometric system 1984;Rurale près des villes
FR16060;C.C.3 Frontières;;15/09/1989;;En service;79 rue de Michelfelden (piscine SIPES);68349;VILLAGE-NEUF;ZR GRAND-EST (FR44ZRE01);ATMO GRAND EST (31);7.568175;47.594913;247.0;World geometric system 1984;Périurbaine
FR16064;Colmar Sud;;29/11/1993;;En service;28 rue de Herrlisheim;68066;COLMAR;ZR GRAND-EST (FR44ZRE01);ATMO GRAND EST (31);7.333139;48.065414;200.0;World geometric system 1984;Périurbaine
FR16065;Mulhouse Est;;30/01/1998;;En service;Av.du Dr Laennec-Hôpitall du Moenchberg;68056;BRUNSTATT-DIDENHEIM ;ZR GRAND-EST (FR44ZRE01);ATMO GRAND EST (31);7.341603;47.723106;355.0;World geometric system 1984;Périurbaine
FR16066;Mulhouse Sud 2;;24/06/1999;;En service;rue Lézard;68224;MULHOUSE;ZR GRAND-EST (FR44ZRE01);ATMO GRAND EST (31);7.309075;47.737415;267.0;World geometric system 1984;Urbaine
FR16067;Vieux Thann 3;;02/06/2013;;En service;rue de l'Artois;68348;VIEUX-THANN;ZR GRAND-EST (FR44ZRE01);ATMO GRAND EST (31);7.122844;47.80221;327.0;World geometric system 1984;Urbaine
FR16069;Mulhouse-Briand;;16/12/2014;;En service;Avenue Aristide Briand;68224;MULHOUSE;ZR GRAND-EST (FR44ZRE01);ATMO GRAND EST (31);7.321364;47.747684;255.0;World geometric system 1984;Urbaine
FR16215;Strasbourg A35 Remparts;site situé à proximité de l'A35 en remplacement du site FR16040 suite à la construction d'un mur antibruit;01/01/2022;;En service;;67482;STRASBOURG;ZAG STRASBOURG (FR44ZAG01);ATMO GRAND EST (31);7.729722;48.588056;144.0;World geometric system 1984;Urbaine
FR16302;Donon Vosges Moyennes 2;site MERA a partir de 2018;03/07/2008;;En service;carrefour Etoile 1;67165;GRANDFONTAINE;ZR GRAND-EST (FR44ZRE01);ATMO GRAND EST (31);7.1298;48.492992;770.0;World geometric system 1984;Rurale nationale
FR18035;Salouel;;27/11/1998;;En service;rue Anatole France;80725;SALOUËL;ZAR AMIENS (FR32ZAR02);ATMO HAUTS DE FRANCE (34);2.239806;49.86889;30.0;World geometric system 1984;Périurbaine
FR18039;Arrest;;19/05/2001;;En service;Stade municipal. chemin de solette;80029;ARREST;ZR HAUTS-DE-FRANCE (FR32ZRE01);ATMO HAUTS DE FRANCE (34);1.610833;50.129448;33.0;World geometric system 1984;Rurale régionale
FR18042;P. Roth St Quentin;;03/02/2004;;En service;38 bd Richelieu;02691;SAINT-QUENTIN;ZR HAUTS-DE-FRANCE (FR32ZRE01);ATMO HAUTS DE FRANCE (34);3.284;49.851334;95.0;World geometric system 1984;Urbaine
FR18043;Faiencerie Creil;;22/02/2004;;En service;SAINT CRICQ CAZEAUX;60175;CREIL;ZAR CREIL (FR32ZAR03);ATMO HAUTS DE FRANCE (34);2.474397;49.259552;34.0;World geometric system 1984;Urbaine
FR18045;Roye;typologie confirmée par l'AASQA le 25/03/2020;23/04/2004;;En service;DE CHAMPIEN;80685;ROYE;ZR HAUTS-DE-FRANCE (FR32ZRE01);ATMO HAUTS DE FRANCE (34);2.801139;49.696697;86.0;World geometric system 1984;Rurale près des villes
FR18053;St Pierre Amiens;;14/12/2010;;En service;Rue Eloi Morel;80021;AMIENS;ZAR AMIENS (FR32ZAR02);ATMO HAUTS DE FRANCE (34);2.304597;49.901667;26.0;World geometric system 1984;Urbaine
FR18055;Creil République;site de prélèvement à proximité de FR18043;01/01/2018;;En service;;60175;CREIL;ZAR CREIL (FR32ZAR03);ATMO HAUTS DE FRANCE (34);2.475004;49.260342;35.0;World geometric system 1984;Urbaine
FR18057;Neuilly-Saint-Front;;02/02/2021;;En service;;02543;NEUILLY-SAINT-FRONT;ZR HAUTS-DE-FRANCE (FR32ZRE01);ATMO HAUTS DE FRANCE (34);3.260819;49.174931;113.0;World geometric system 1984;Rurale régionale
FR18058;Gaudechart;;01/01/2024;;En service;;60269;GAUDECHART;ZR HAUTS-DE-FRANCE (FR32ZRE01);ATMO HAUTS DE FRANCE (34);1.963259;49.61563;119.0;World geometric system 1984;Rurale régionale
FR18079;TRAFIC AMIENS;;01/01/2012;;En service;avenue du 14 juillet;80021;AMIENS;ZAR AMIENS (FR32ZAR02);ATMO HAUTS DE FRANCE (34);2.2825;49.87722;68.0;World geometric system 1984;Urbaine
FR18080;TRAF Saint Quent 14;Station traffic Saint Quentin 2014;15/01/2014;;En service;Bd Victor Hugo;02691;SAINT-QUENTIN;ZR HAUTS-DE-FRANCE (FR32ZRE01);ATMO HAUTS DE FRANCE (34);3.281439;49.84282;78.0;World geometric system 1984;Urbaine
FR18089;Trafic Beauvais 1;;02/08/2010;;En service;Boulevard du Dr LAMOTTE;60057;BEAUVAIS;ZR HAUTS-DE-FRANCE (FR32ZRE01);ATMO HAUTS DE FRANCE (34);2.084292;49.435932;72.0;World geometric system 1984;Urbaine
FR19002;Rennes Laennec;;26/08/1993;;En service;16 Bd Laennec;35238;RENNES;ZAG RENNES (FR53ZAG01);AIR BREIZH (01);-1.66586;48.10861;28.0;World geometric system 1984;Urbaine
FR19007;Rennes Les Halles;;01/11/1995;;En service;Bd de la Liberté;35238;RENNES;ZAG RENNES (FR53ZAG01);AIR BREIZH (01);-1.67984;48.10751;27.0;World geometric system 1984;Urbaine
FR19012;Brest Mace;;07/07/1999;;En service;Ecole Jean Macé - Rue Delessert;29019;BREST;ZAR BREST (FR53ZAR01);AIR BREIZH (01);-4.4866;48.38618;48.0;World geometric system 1984;Urbaine
FR19014;Brest Desmoulins;;26/10/2000;;En service;Rue Camille Desmoulins - Place Albert 1er;29019;BREST;ZAR BREST (FR53ZAR01);AIR BREIZH (01);-4.48871;48.39746;59.0;World geometric system 1984;Urbaine
FR19016;BREST Plouzané;;18/11/2019;;En service;655 Avenue du Technopôle;29212;PLOUZANÉ;ZAR BREST (FR53ZAR01);AIR BREIZH (01);-4.568055;48.359444;66.0;World geometric system 1984;Périurbaine
FR19018;MORDELLES BELLAIS;;17/11/2018;;En service;;35196;MORDELLES;ZAG RENNES (FR53ZAG01);AIR BREIZH (01);-1.834583;48.082883;45.0;World geometric system 1984;Périurbaine
FR19019;Rennes Rue Saint Malo;;01/01/2010;;En service; Rue de Saint Malo. Rennes;35238;RENNES;ZAG RENNES (FR53ZAG01);AIR BREIZH (01);-1.68606;48.12659;42.0;World geometric system 1984;Urbaine
FR19020;Kergoff;site MERA;05/12/2019;;En service;Services Techniques  ZI Pelouaille;22149;MERLÉAC;ZR BRETAGNE (FR53ZRE01);AIR BREIZH (01);-2.943631;48.261963;307.0;World geometric system 1984;Rurale nationale
FR19032;Lorient B. Bissonnet;;22/10/1999;;En service;2 rue Varlin - Ecole;56121;LORIENT;ZR BRETAGNE (FR53ZRE01);AIR BREIZH (01);-3.39501;47.7425;37.0;World geometric system 1984;Urbaine
FR19033;Vannes UTA;;24/03/2010;;En service;39 bis rue Albert 1er;56260;VANNES;ZR BRETAGNE (FR53ZRE01);AIR BREIZH (01);-2.76399;47.64892;20.0;World geometric system 1984;Urbaine
FR19037;Lorient Normandie;;03/12/2020;;En service;21 boulevard de Normandir;56121;LORIENT;ZR BRETAGNE (FR53ZRE01);AIR BREIZH (01);-3.36938;47.758947;19.4;World geometric system 1984;Urbaine
FR19039;Rennes Thabor;Remplacement des stations de fond Saint-Yves et Pays-Bas;08/12/2022;;En service;3 Place Saint-Mélaine;35238;RENNES;ZAG RENNES (FR53ZAG01);AIR BREIZH (01);-1.673088;48.11521;54.0;World geometric system 1984;Urbaine
FR19053;Quimper Zola;Création suite à la fermeture de la station urbaine de fond de Quimper Ferry en 2013 à la demande de la collectivité;18/09/2017;;En service;3 rue Emile Zola;29232;QUIMPER;ZR BRETAGNE (FR53ZRE01);AIR BREIZH (01);-4.097658;47.986606;61.0;World geometric system 1984;Urbaine
FR19061;Saint Brieuc Balzac;;01/09/2000;;En service;2 Rue de Balzac-Ecole;22278;SAINT-BRIEUC;ZR BRETAGNE (FR53ZRE01);AIR BREIZH (01);-2.74953;48.51351;90.0;World geometric system 1984;Urbaine
FR19082;StMalo Rocabey;;21/06/2018;;En service;3 Av du 47ème Régiment d'infanterie;35288;SAINT-MALO;ZR BRETAGNE (FR53ZRE01);AIR BREIZH (01);-2.00268;48.65306;5.0;World geometric system 1984;Périurbaine
FR20013;A7 SUD LYONNAIS;;09/02/1999;;En service;Face au 25 ter Quai P.Sémart (bord A7);69142;LA MULATIÈRE;ZAG LYON (FR84ZAG01);ATMO AUVERGNE-RHÔNE-ALPES (32);4.818156;45.720024;163.0;World geometric system 1984;Périurbaine
FR20017;GERLAND;;04/06/1993;;En service;Ecole Berthelier-185 rue Marcel Mérieux;69387;LYON 7E ARRONDISSEMENT;ZAG LYON (FR84ZAG01);ATMO AUVERGNE-RHÔNE-ALPES (32);4.829794;45.73529;172.0;World geometric system 1984;Urbaine
FR20029;FEYZIN STADE;;01/01/1984;;En service;Stade Municipal Jean Bouin;69276;FEYZIN;ZAG LYON (FR84ZAG01);ATMO AUVERGNE-RHÔNE-ALPES (32);4.8459;45.6639;160.0;World geometric system 1984;Périurbaine
FR20037;TERNAY;;01/01/1982;;En service;Salle Omnisports du Devès;69297;TERNAY;ZAG LYON (FR84ZAG01);ATMO AUVERGNE-RHÔNE-ALPES (32);4.8022;45.6019;235.0;World geometric system 1984;Périurbaine
FR20046;VAULX EN VELIN;;14/05/2004;;En service;ENTPE - 3  rue Maurice Audin;69256;VAULX-EN-VELIN;ZAG LYON (FR84ZAG01);ATMO AUVERGNE-RHÔNE-ALPES (32);4.9247;45.7789;172.0;World geometric system 1984;Urbaine
FR20047;COTIERE AIN;;09/09/2005;;En service;Passage de Paravis;01249;MIRIBEL;ZAG LYON (FR84ZAG01);ATMO AUVERGNE-RHÔNE-ALPES (32);4.953958;45.823223;180.0;World geometric system 1984;Périurbaine
FR20048;SAINT EXUPERY;;14/12/2001;;En service;Complexe sportif Louis Durand;69285;PUSIGNAN;ZAG LYON (FR84ZAG01);ATMO AUVERGNE-RHÔNE-ALPES (32);5.0722;45.7533;217.0;World geometric system 1984;Périurbaine
FR20049;HAUT BEAUJOLAIS;;01/06/1996;;En service;Le Bourg;69075;DIÈME;ZR AUVERGNE-RHONE-ALPES (FR84ZRE02);ATMO AUVERGNE-RHÔNE-ALPES (32);4.465711;45.96141;540.0;World geometric system 1984;Rurale près des villes
FR20060;VENISSIEUX Village;;14/05/2004;;En service;43  boulevard Laurent Gerin;69259;VÉNISSIEUX;ZAG LYON (FR84ZAG01);ATMO AUVERGNE-RHÔNE-ALPES (32);4.8836;45.7036;195.0;World geometric system 1984;Urbaine
FR20062;LYON Centre;;01/02/2007;;En service;20  rue du Lac;69383;LYON 3E ARRONDISSEMENT;ZAG LYON (FR84ZAG01);ATMO AUVERGNE-RHÔNE-ALPES (32);4.854214;45.757732;160.0;World geometric system 1984;Urbaine
FR20064;VERNAISON;;31/03/2009;;En service;Rue du port PERRET;69260;VERNAISON;ZAG LYON (FR84ZAG01);ATMO AUVERGNE-RHÔNE-ALPES (32);4.816911;45.650616;165.0;World geometric system 1984;Périurbaine
FR20069;Lyon Périphérique;;25/11/2014;;En service;Boulevard Laurent Bonnevay;69266;VILLEURBANNE;ZAG LYON (FR84ZAG01);ATMO AUVERGNE-RHÔNE-ALPES (32);4.898572;45.77482;170.0;World geometric system 1984;Urbaine
FR20070;LYON TRAFIC JAURES;;09/12/2015;;En service;;69387;LYON 7E ARRONDISSEMENT;ZAG LYON (FR84ZAG01);ATMO AUVERGNE-RHÔNE-ALPES (32);4.84438888888888;45.7496944;167.0;World geometric system 1984;Urbaine
FR20077;Villefranche Centre ;;21/12/2017;;En service;27 Place Roger Rousset;69264;VILLEFRANCHE-SUR-SAÔNE;ZAG LYON (FR84ZAG01);ATMO AUVERGNE-RHÔNE-ALPES (32);4.715566;45.990112;184.0;World geometric system 1984;Urbaine
FR21001;Caen Chemin-Vert;;01/01/1993;;En service;Rue Pierre Corneille;14118;CAEN;ZAR CAEN (FR28ZAR02);ATMO NORMANDIE (28);-0.391111;49.19222;56.0;World geometric system 1984;Urbaine
FR21017;Ouistreham;;01/07/1991;;En service;Place alexandre lofi;14488;OUISTREHAM;ZAR CAEN (FR28ZAR02);ATMO NORMANDIE (28);-0.257778;49.289444;6.0;World geometric system 1984;Périurbaine
FR21019;IFS Caen sud;;18/11/1996;;En service;Rue Paul Claudel;14341;IFS;ZAR CAEN (FR28ZAR02);ATMO NORMANDIE (28);-0.352778;49.15167;22.0;World geometric system 1984;Urbaine
FR21031;Alençon Météo-France;;16/03/2005;;En service;Avenue Francis Cagnard;61077;CERISÉ;ZR NORMANDIE (FR28ZRE02);ATMO NORMANDIE (28);0.110833;48.445553;140.0;World geometric system 1984;Périurbaine
FR21038;Cherbourg Hotel de Ville;;06/09/2018;;En service;cour interieure de l'Hotel de ville;50129;CHERBOURG-EN-COTENTIN ;ZR NORMANDIE (FR28ZRE02);ATMO NORMANDIE (28);-1.624361;49.64225;6.5;World geometric system 1984;Urbaine
FR21039;Cherbourg PMF;;12/01/2023;;En service;;50129;CHERBOURG-EN-COTENTIN ;ZR NORMANDIE (FR28ZRE02);ATMO NORMANDIE (28);-1.62472222221668;49.6338888888888;7.0;World geometric system 1984;Urbaine
FR21040;Saint-Lô Eglise;;10/04/2002;;En service;Eglise Sainte-Croix;50502;SAINT-LÔ;ZR NORMANDIE (FR28ZRE02);ATMO NORMANDIE (28);-1.084722;49.11639;56.0;World geometric system 1984;Urbaine
FR21050;La Coulonche MERA;site MERA;22/11/2007;;En service;Le Bourg;61124;LA COULONCHE;ZR NORMANDIE (FR28ZRE02);ATMO NORMANDIE (28);-0.458333;48.645;309.0;World geometric system 1984;Rurale nationale
FR21101;Caen Montalivet;;11/01/2023;;En service;;14437;MONDEVILLE;ZAR CAEN (FR28ZAR02);ATMO NORMANDIE (28);-0.329750000088734;49.1798333190825;5.0;World geometric system 1984;Urbaine
FR22009;Ecole de Carling(9);;01/01/1982;;En service;Ecole primaire;57123;CARLING;ZR GRAND-EST (FR44ZRE01);ATMO GRAND EST (31);6.716886;49.165726;210.0;World geometric system 1984;Périurbaine
FR22054;Station de FORBACH;;14/10/2011;;En service;RUE G.LEHARLE;57227;FORBACH;ZR GRAND-EST (FR44ZRE01);ATMO GRAND EST (31);6.910867;49.18742;233.0;World geometric system 1984;Urbaine
FR23001;AMPERE;A proximité du château d'eau;18/07/1984;;En service;1-3 rue Ampère;44052;DONGES;ZAG NANTES-SAINT-NAZAIRE (FR52ZAG01);AIR PAYS DE LA LOIRE (06);-2.081567;47.324097;10.0;World geometric system 1984;Périurbaine
FR23003;LA MEGRETAIS;;01/06/1982;;En service;204  Lieu dit La Mégretais;44052;DONGES;ZAG NANTES-SAINT-NAZAIRE (FR52ZAG01);AIR PAYS DE LA LOIRE (06);-2.039244;47.322706;11.0;World geometric system 1984;Périurbaine
FR23004;PASTEUR;;15/06/1984;;En service;1 bis rue Pasteur;44052;DONGES;ZAG NANTES-SAINT-NAZAIRE (FR52ZAG01);AIR PAYS DE LA LOIRE (06);-2.073306;47.317284;9.0;World geometric system 1984;Périurbaine
FR23068;FROSSAY;Face au N°17 rue du Prieuré. A proximité du cimetière;10/01/1992;;En service;Rue du Prieuré;44061;FROSSAY;ZR PAYS-DE-LA-LOIRE (FR52ZRE01);AIR PAYS DE LA LOIRE (06);-1.936619;47.24747;25.0;World geometric system 1984;Rurale près des villes
FR23069;SAVENAY;Sur un parking résidentiel;10/01/1992;;En service;Angle Bd E Branly et 9 rue des Vendéens;44195;SAVENAY;ZAG NANTES-SAINT-NAZAIRE (FR52ZAG01);AIR PAYS DE LA LOIRE (06);-1.95475;47.36075;50.0;World geometric system 1984;Périurbaine
FR23070;S ETIENNE DE MONTLUC;Implantée dans un enclos jouxtant un tranfo EDF;10/01/1992;;En service;chemin de Bellevue;44158;SAINT-ÉTIENNE-DE-MONTLUC;ZAG NANTES-SAINT-NAZAIRE (FR52ZAG01);AIR PAYS DE LA LOIRE (06);-1.783164;47.28318;62.0;World geometric system 1984;Périurbaine
FR23075;JULES VERNE;Entrée par le Centre Technique Municipal;30/03/1994;;En service;Face au n° 16 de la rue Jules Verne;44210;TRIGNAC;ZAG NANTES-SAINT-NAZAIRE (FR52ZAG01);AIR PAYS DE LA LOIRE (06);-2.190764;47.315727;8.0;World geometric system 1984;Périurbaine
FR23078;SAINT EXUPERY;Ecole Saint Exupéry;30/05/1996;;En service;28 rue Grignion de Montfort;49099;CHOLET;ZR PAYS-DE-LA-LOIRE (FR52ZRE01);AIR PAYS DE LA LOIRE (06);-0.886111;47.054443;100.0;World geometric system 1984;Urbaine
FR23107;LA CHAUVINIERE;Ecole Primaire de la Chauviniere.Entrée possible par le 25 rue de la Fantaisie (entrée gardien);20/05/1999;;En service;32 bd de la Chauvinière;44109;NANTES;ZAG NANTES-SAINT-NAZAIRE (FR52ZAG01);AIR PAYS DE LA LOIRE (06);-1.573333;47.252777;20.0;World geometric system 1984;Urbaine
FR23110;LEON BLUM;Entrée par groupe scolaire Léon Blum;05/07/1999;;En service;95 Route des Frêchets;44184;SAINT-NAZAIRE;ZAG NANTES-SAINT-NAZAIRE (FR52ZAG01);AIR PAYS DE LA LOIRE (06);-2.249858;47.26412;10.0;World geometric system 1984;Urbaine
FR23120;BEAUX ARTS;Entrée Jardin du musée des Beaux Arts;22/12/1999;;En service;35 boulevard du Roi René ;49007;ANGERS;ZAR ANGERS-LOIRE (FR52ZAR01);AIR PAYS DE LA LOIRE (06);-0.556053;47.468513;30.0;World geometric system 1984;Urbaine
FR23123;MAZAGRAN;Dans l'enceinte du foyer des jeunes travailleurs;23/01/2001;;En service;24 rue Mazagran;53130;LAVAL;ZAR LAVAL (FR52ZAR03);AIR PAYS DE LA LOIRE (06);-0.767692;48.06943;51.0;World geometric system 1984;Urbaine
FR23124;LA TARDIERE;site MERA;28/06/2001;;En service;Lieu dit La Folie direction la Brossardière;85289;LA TARDIÈRE;ZR PAYS-DE-LA-LOIRE (FR52ZRE01);AIR PAYS DE LA LOIRE (06);-0.743681;46.656685;100.0;World geometric system 1984;Rurale nationale
FR23149;CUTULLIC2;Face au N° 6  rue Constant Riou. Proximité terrain sportif;28/11/2005;;En service;rue Constant Riou;44116;PAIMBŒUF;ZR PAYS-DE-LA-LOIRE (FR52ZRE01);AIR PAYS DE LA LOIRE (06);-2.032289;47.286114;4.0;World geometric system 1984;Périurbaine
FR23150;APPENTIS;Face au 228 rue du Dr Guichard ou 10 rue Landemaure;15/12/2004;;En service;rue de l'Appentis;49007;ANGERS;ZAR ANGERS-LOIRE (FR52ZAR01);AIR PAYS DE LA LOIRE (06);-0.550067;47.44739;30.0;World geometric system 1984;Urbaine
FR23152;DELACROIX;;07/02/2005;;En service;impasse Eugène Delacroix;85191;LA ROCHE-SUR-YON;ZR PAYS-DE-LA-LOIRE (FR52ZRE01);AIR PAYS DE LA LOIRE (06);-1.436831;46.6607;50.0;World geometric system 1984;Urbaine
FR23157;EPINETTES;Entrée par restaurant scolaire Maryse Bastié;07/02/2005;;En service;2 rue des Epinettes ;44018;BOUAYE;ZAG NANTES-SAINT-NAZAIRE (FR52ZAG01);AIR PAYS DE LA LOIRE (06);-1.690269;47.146088;12.0;World geometric system 1984;Périurbaine
FR23163;Fillé;A proximité d'un restaurant scolaire;06/09/2005;;En service;6 bis rue de Fillé;72344;SPAY;ZR PAYS-DE-LA-LOIRE (FR52ZRE01);AIR PAYS DE LA LOIRE (06);0.151825;47.92192;42.0;World geometric system 1984;Périurbaine
FR23174;GUEDOU;Implantée à proximité parking Maison de quartier Pierre Guédou;30/01/2006;;En service;Rue du Pont;72181;LE MANS;ZAR LE-MANS (FR52ZAR02);AIR PAYS DE LA LOIRE (06);0.195983;47.98892;50.0;World geometric system 1984;Urbaine
FR23175;CLOS DES BEAUVAIS;A l'entrée du lotissement et jouxtant le transfo EDF;27/02/2006;;En service;rue du Clos de Beauvais;49035;BOUCHEMAINE;ZAR ANGERS-LOIRE (FR52ZAR01);AIR PAYS DE LA LOIRE (06);-0.610064;47.430164;20.0;World geometric system 1984;Périurbaine
FR23177;SAINT-DENIS D'ANJOU;;15/09/2005;;En service;8 rue des Vignerons;53210;SAINT-DENIS-D'ANJOU;ZR PAYS-DE-LA-LOIRE (FR52ZRE01);AIR PAYS DE LA LOIRE (06);-0.444044;47.78773;54.0;World geometric system 1984;Rurale régionale
FR23178;PARSCAU DU PLESSIS;A proximité du cimetière;06/07/2006;;En service;rue Parscau du Plessis;44052;DONGES;ZAG NANTES-SAINT-NAZAIRE (FR52ZAG01);AIR PAYS DE LA LOIRE (06);-2.066953;47.319157;9.0;World geometric system 1984;Périurbaine
FR23181;PARC PAYSAGER;Entrée par Parc Paysager. En face de la CPAM;15/01/2007;;En service;rue Suzanne Lenglen;44184;SAINT-NAZAIRE;ZAG NANTES-SAINT-NAZAIRE (FR52ZAG01);AIR PAYS DE LA LOIRE (06);-2.223056;47.273056;10.0;World geometric system 1984;Urbaine
FR23182;SOURCES;Côté n°64 rue des Sources dans une impasse;03/01/2007;;En service;Rue des Sources;72181;LE MANS;ZAR LE-MANS (FR52ZAR02);AIR PAYS DE LA LOIRE (06);0.221422;47.971066;50.0;World geometric system 1984;Urbaine
FR23188;CIM BOUTEILLERIE;Entrée par le cimetière de la Bouteillerie;20/12/2007;;En service;9 rue Gambetta;44109;NANTES;ZAG NANTES-SAINT-NAZAIRE (FR52ZAG01);AIR PAYS DE LA LOIRE (06);-1.5375;47.2225;20.0;World geometric system 1984;Urbaine
FR23230;GASPARD;Proximité Stade Louis Mahé;27/01/2011;;En service;Av Gaspard (stade Louis Mahé);44132;PORNICHET;ZAG NANTES-SAINT-NAZAIRE (FR52ZAG01);AIR PAYS DE LA LOIRE (06);-2.332067;47.253056;12.0;World geometric system 1984;Périurbaine
FR23238;LEVOYER;;27/02/2017;;En service;9 Place Athanase le Voyer, 44400 Rezé;44143;REZÉ;ZAG NANTES-SAINT-NAZAIRE (FR52ZAG01);AIR PAYS DE LA LOIRE (06);-1.581677778;47.1941472;10.0;World geometric system 1984;Urbaine
FR23239;LES COUETS;moyen mobile type shelter;01/03/2017;;En service;;44020;BOUGUENAIS;ZAG NANTES-SAINT-NAZAIRE (FR52ZAG01);AIR PAYS DE LA LOIRE (06);-1.59149722222222;47.1859194;21.0;World geometric system 1984;Urbaine
FR23242;ROI RENE;La station sera  implantée derrière l'abribus;01/01/2022;;En service;54 Bd du Roi René;49007;ANGERS;ZAR ANGERS-LOIRE (FR52ZAR01);AIR PAYS DE LA LOIRE (06);-0.554686;47.466992;52.0;World geometric system 1984;Urbaine
FR23249;CAME;Selon orientations PRSQA 2016-2021,complément du dispositif dans l’environnement de YARA. Par ailleurs, la collectivité de Montoir de Bretagne a sollicité Air Pays de la Loire suite à des plaintes de riverains pour compléter le dispositif au sud de la commune à proximité sur le lieu-dit Camé. ;01/01/2021;;En service;;44103;MONTOIR-DE-BRETAGNE;ZAG NANTES-SAINT-NAZAIRE (FR52ZAG01);AIR PAYS DE LA LOIRE (06);-2.127322;47.3210778;4.0;World geometric system 1984;Périurbaine
FR23251;FRERES GONCOURT;;30/12/2021;;En service;18 bd Victor Hugo;44109;NANTES;ZAG NANTES-SAINT-NAZAIRE (FR52ZAG01);AIR PAYS DE LA LOIRE (06);-1.564811;47.204122;25.0;World geometric system 1984;Urbaine
FR23252;LAVAL-La Paix;;15/11/2023;;En service;40 Rue de la Paix;53130;LAVAL;ZAR LAVAL (FR52ZAR03);AIR PAYS DE LA LOIRE (06);-0.76708;48.07106;49.0;World geometric system 1984;Urbaine
FR24007;ANTIBES JEAN MOULIN;;06/11/1997;;En service;1010 CHEMIN DES COMBES;06004;ANTIBES;ZAG NICE (FR93ZAG02);ATMO SUD (05);7.093153;43.598803;81.0;World geometric system 1984;Périurbaine
FR24009;CANNES BROUSSAILLES;;31/03/1998;;En service;189 Avenue de grasse - Parking;06029;CANNES;ZAG NICE (FR93ZAG02);ATMO SUD (05);7.005919;43.558389;71.0;World geometric system 1984;Urbaine
FR24011;NICE OUEST BOTANIQUE;;03/07/1998;;En service;78 Corniche Fleurie;06088;NICE;ZAG NICE (FR93ZAG02);ATMO SUD (05);7.211174;43.685188;118.0;World geometric system 1984;Périurbaine
FR24014;CIANS;;26/06/2000;;En service;Mairie 6 Rue du Comté de Beuil;06016;BEUIL;ZR PROVENCE-ALPES-COTE-D-AZUR (FR93ZRE02);ATMO SUD (05);6.988978;44.094688;1454.0;World geometric system 1984;Rurale régionale
FR24018;MANOSQUE;;13/07/2001;;En service;Impasse  des Drailles;04112;MANOSQUE;ZR PROVENCE-ALPES-COTE-D-AZUR (FR93ZRE02);ATMO SUD (05);5.786131;43.835784;385.0;World geometric system 1984;Urbaine
FR24021;PEILLON;;09/12/2002;;En service;Quartier des Novaines - RD 21;06092;PEILLON;ZAG NICE (FR93ZAG02);ATMO SUD (05);7.373283;43.786583;196.0;World geometric system 1984;Périurbaine
FR24023;CONTES 2;;11/12/2001;;En service;Route departementale 15;06048;CONTES;ZAG NICE (FR93ZAG02);ATMO SUD (05);7.332382;43.788748;146.0;World geometric system 1984;Périurbaine
FR24033;GAP COMMANDERIE;;06/11/2009;;En service;Rue du prés de foire;05061;GAP;ZR PROVENCE-ALPES-COTE-D-AZUR (FR93ZRE02);ATMO SUD (05);6.073015;44.555193;743.0;World geometric system 1984;Urbaine
FR24035;NICE PROMENADE;;06/05/2010;;En service;Promenade des Anglais;06088;NICE;ZAG NICE (FR93ZAG02);ATMO SUD (05);7.242074;43.689291;4.0;World geometric system 1984;Urbaine
FR24036;NICE ARSON;;13/12/2011;;En service;Place Arson;06088;NICE;ZAG NICE (FR93ZAG02);ATMO SUD (05);7.286256;43.702075;11.0;World geometric system 1984;Urbaine
FR24038;GAP JEAN JAURES;;12/10/2012;;En service;AVENUE JEAN JAURES;05061;GAP;ZR PROVENCE-ALPES-COTE-D-AZUR (FR93ZRE02);ATMO SUD (05);6.067237;44.548647;736.0;World geometric system 1984;Urbaine
FR24039;Obs Haute-Provence;;27/07/2012;;En service;Emplacement 152. Saint Michel l Obs;04192;SAINT-MICHEL-L'OBSERVATOIRE;ZR PROVENCE-ALPES-COTE-D-AZUR (FR93ZRE02);ATMO SUD (05);5.711809;43.933476;668.0;World geometric system 1984;Rurale près des villes
FR24040;Cheiron;;16/12/2014;;En service;338 Route de l Ourmeou;06050;COURSEGOULES;ZR PROVENCE-ALPES-COTE-D-AZUR (FR93ZRE02);ATMO SUD (05);7.048276;43.791911;994.0;World geometric system 1984;Rurale régionale
FR25035;Gd Couronne Mairie;;10/02/1998;;En service;rue DUCLOS;76319;GRAND-COURONNE;ZAG ROUEN (FR28ZAG01);ATMO NORMANDIE (28);1.007853;49.358215;22.0;World geometric system 1984;Urbaine
FR25036;Espace du Palais;La station est juste à côté de l'ancien prieuré Saint-Lô au centre de la vieille ville de Rouen, au niveau du lycée Camille-Saint-Saëns;25/10/2000;;En service;22 rue Saint Lo;76540;ROUEN;ZAG ROUEN (FR28ZAG01);ATMO NORMANDIE (28);1.093789;49.442358;17.0;World geometric system 1984;Urbaine
FR25039;Evreux Centre;;09/03/1999;;En service;Tyssandier;27229;ÉVREUX;ZR NORMANDIE (FR28ZRE02);ATMO NORMANDIE (28);1.148319;49.02134;65.0;World geometric system 1984;Urbaine
FR25040;Mesnil Esnard;;10/09/1999;;En service;rue Pierre de Coubertin;76429;LE MESNIL-ESNARD;ZAG ROUEN (FR28ZAG01);ATMO NORMANDIE (28);1.15515;49.40619;160.0;World geometric system 1984;Périurbaine
FR25043;Centre Hospitalier;;12/01/2000;;En service;4 Rue Paul Eluard;76681;SOTTEVILLE-LÈS-ROUEN;ZAG ROUEN (FR28ZAG01);ATMO NORMANDIE (28);1.099042;49.4005;11.0;World geometric system 1984;Urbaine
FR25049;Base loisirs Poses;;15/06/2007;;En service;Butte Capoulad - Lac des deux amant;27701;VAL-DE-REUIL;ZR NORMANDIE (FR28ZRE02);ATMO NORMANDIE (28);1.214367;49.30487;21.0;World geometric system 1984;Rurale près des villes
FR25050;Bures-en-bray;Bures-en-bray avenue Verte;28/05/2013;;En service;avenue Verte;76148;BURES-EN-BRAY;ZR NORMANDIE (FR28ZRE02);ATMO NORMANDIE (28);1.345083;49.78122;65.0;World geometric system 1984;Rurale régionale
FR25051;Dieppe prox-auto;Dieppe avenue Gambetta proxi auto;07/04/2013;;En service;avenue Gambetta-rampe Antoine Servin;76217;DIEPPE;ZR NORMANDIE (FR28ZRE02);ATMO NORMANDIE (28);1.073972;49.918007;45.0;World geometric system 1984;Urbaine
FR25053;Rouen Proxi Quai de Paris;;09/01/2018;;En service;Quai de Paris;76540;ROUEN;ZAG ROUEN (FR28ZAG01);ATMO NORMANDIE (28);1.098838;49.436699;9.0;World geometric system 1984;Urbaine
FR25054;Petit-Quevilly Sud 3;Site temporaire avant l'installation du siste 25053.  En 2019, ce site servira à établir un état des lieux de la pollution sur ce secteur avant la construction du raccordement entre la Sud III et le Pont Flaubert (demande du service Mobilités et Infracstructures de la DREAL Normandie);01/01/2017;;En service;75 Rue de la Motte, 76140 Le Petit-Quevilly;76498;LE PETIT-QUEVILLY;ZAG ROUEN (FR28ZAG01);ATMO NORMANDIE (28);1.067052778;49.4341639;9.0;World geometric system 1984;Urbaine
FR25055;Dieppe Golf;;05/03/2021;;En service;;76217;DIEPPE;ZR NORMANDIE (FR28ZRE02);ATMO NORMANDIE (28);1.047892;49.920492;89.0;World geometric system 1984;Périurbaine
FR25501;Saint-Saens;;01/01/2009;;En service;Ecole des petits tanneurs-rue E. BRION;76648;SAINT-SAËNS;ZR NORMANDIE (FR28ZRE02);ATMO NORMANDIE (28);1.2843;49.6713;104.0;World geometric system 1984;Rurale régionale
FR26005;Dijon Péjoces;;01/01/1994;;En service;rue F. Holweck 21000 DIJON;21231;DIJON;ZAR DIJON (FR27ZAR02);ATMO BOURGOGNE-FRANCHE-COMTE (33);5.065881;47.307368;238.0;World geometric system 1984;Périurbaine
FR26010;Daix;;23/03/1996;;En service;des Croillerans;21223;DAIX;ZAR DIJON (FR27ZAR02);ATMO BOURGOGNE-FRANCHE-COMTE (33);5.002377;47.3456;332.0;World geometric system 1984;Périurbaine
FR26012;Morvan;site MERA;01/01/1998;;En service;Maison du Parc;58235;SAINT-BRISSON;ZR BOURGOGNE-FRANCHE-COMTE (FR27ZRE01);ATMO BOURGOGNE-FRANCHE-COMTE (33);4.099476;47.274762;638.0;World geometric system 1984;Rurale nationale
FR26014;Dijon Trémouille;;22/07/2004;;En service;Bd de la Trémouille;21231;DIJON;ZAR DIJON (FR27ZAR02);ATMO BOURGOGNE-FRANCHE-COMTE (33);5.041056;47.325744;246.0;World geometric system 1984;Urbaine
FR26016;Sens;;01/07/2001;;En service;rue Clos du Roi;89387;SENS;ZR BOURGOGNE-FRANCHE-COMTE (FR27ZRE01);ATMO BOURGOGNE-FRANCHE-COMTE (33);3.2773;48.200436;70.0;World geometric system 1984;Urbaine
FR26017;Nevers;;01/07/2001;;En service;rue Mademoiselle Bourgeois;58194;NEVERS;ZR BOURGOGNE-FRANCHE-COMTE (FR27ZRE01);ATMO BOURGOGNE-FRANCHE-COMTE (33);3.171092;46.996828;190.0;World geometric system 1984;Urbaine
FR26019;Auxerre;;01/01/2006;;En service;rue Jules Guignier;89024;AUXERRE;ZR BOURGOGNE-FRANCHE-COMTE (FR27ZRE01);ATMO BOURGOGNE-FRANCHE-COMTE (33);3.576189;47.800575;107.0;World geometric system 1984;Urbaine
FR26094;Dijon Ardennes;Mesures sous influence trafic sur la ZAR de Dijon;01/01/2023;;En service;;21231;DIJON;ZAR DIJON (FR27ZAR02);ATMO BOURGOGNE-FRANCHE-COMTE (33);5.070706;47.351367;238.0;World geometric system 1984;Urbaine
FR27002;ROUSSILLON;;03/12/1992;;En service;rue Verguin;38344;ROUSSILLON;ZAR VALLEE-DU-RHONE (FR84ZAR02);ATMO AUVERGNE-RHÔNE-ALPES (32);4.805147;45.36782;157.0;World geometric system 1984;Urbaine
FR27003;ROCHES DE CONDRIEU;;07/12/1992;;En service;Stade des roches SIGIS;38340;LES ROCHES-DE-CONDRIEU;ZR AUVERGNE-RHONE-ALPES (FR84ZRE02);ATMO AUVERGNE-RHÔNE-ALPES (32);4.766528;45.454517;152.0;World geometric system 1984;Périurbaine
FR27005;Sablons;;17/11/2003;;En service;Place du champ de Foire Le Bourg;38349;SABLONS;ZAR VALLEE-DU-RHONE (FR84ZAR02);ATMO AUVERGNE-RHÔNE-ALPES (32);4.770702;45.321845;136.0;World geometric system 1984;Périurbaine
FR27007;Bourgoin-Jallieu;;20/07/2004;;En service;I.F.P.A.C.  rue St Honoré - Champfleuri;38053;BOURGOIN-JALLIEU;ZAG LYON (FR84ZAG01);ATMO AUVERGNE-RHÔNE-ALPES (32);5.270872;45.60822;227.0;World geometric system 1984;Urbaine
FR27010;Plateau de Bonnevaux;;24/12/2013;;En service;Le grand Mollard;38211;LIEUDIEU;ZR AUVERGNE-RHONE-ALPES (FR84ZRE02);ATMO AUVERGNE-RHÔNE-ALPES (32);5.181081;45.4609;520.0;World geometric system 1984;Rurale près des villes
FR27011;A7 Salaise Ouest;;10/12/2019;;En service;Rue de Perrier;38468;SALAISE-SUR-SANNE;ZAR VALLEE-DU-RHONE (FR84ZAR02);ATMO AUVERGNE-RHÔNE-ALPES (32);4.807481;45.344078;157.0;World geometric system 1984;Périurbaine
FR28010;Harnes Serres;;02/10/1992;;En service;Rue V.Hugo-Serres Municipales;62413;HARNES;ZAG BLDV (FR32ZAG01);ATMO HAUTS DE FRANCE (34);2.9;50.44914;31.0;World geometric system 1984;Périurbaine
FR28022;St-Laurent-Blangy;;12/09/2008;;En service;Rue René Cassin;62753;SAINT-LAURENT-BLANGY;ZAR ARRAS (FR32ZAR04);ATMO HAUTS DE FRANCE (34);2.807369;50.30886;90.0;World geometric system 1984;Périurbaine
FR28028;Bethune Stade;;01/06/2004;;En service;Rue F Bar-Ctr Sportif L. Lagrange;62119;BÉTHUNE;ZAG BLDV (FR32ZAG01);ATMO HAUTS DE FRANCE (34);2.635692;50.535385;26.0;World geometric system 1984;Urbaine
FR28033;Noeux-les-Mines;;23/09/2014;;En service;Rue du Marais;62847;VERQUIGNEUL;ZAG BLDV (FR32ZAG01);ATMO HAUTS DE FRANCE (34);2.66642;50.48972;23.0;World geometric system 1984;Périurbaine
FR28034;ISBERGUES;site mobile pérenne;25/02/2013;;En service;62 Impasse Vandaele. 62330 Isbergues;62473;ISBERGUES;ZAG BLDV (FR32ZAG01);ATMO HAUTS DE FRANCE (34);2.473341;50.625868;19.0;World geometric system 1984;Rurale près des villes
FR28115;Lens Varsovie;;23/12/2015;;En service;Avenue de Varsovie;62498;LENS;ZAG BLDV (FR32ZAG01);ATMO HAUTS DE FRANCE (34);2.836111;50.428604;33.0;World geometric system 1984;Urbaine
FR29423;ROANNE;;27/07/1995;;En service;Gilbertes;42187;ROANNE;ZR AUVERGNE-RHONE-ALPES (FR84ZRE02);ATMO AUVERGNE-RHÔNE-ALPES (32);4.074656;46.04111;259.0;World geometric system 1984;Urbaine
FR29424;SAINT ETIENNE SUD;;02/10/1996;;En service;Place Préher;42218;SAINT-ÉTIENNE;ZAG SAINT-ETIENNE (FR84ZAG03);ATMO AUVERGNE-RHÔNE-ALPES (32);4.395422;45.42009;552.0;World geometric system 1984;Urbaine
FR29426;SAINT-CHAMOND;;08/12/1998;;En service;8 rue Dugas Montbel;42207;SAINT-CHAMOND;ZAG SAINT-ETIENNE (FR84ZAG03);ATMO AUVERGNE-RHÔNE-ALPES (32);4.515003;45.475327;366.0;World geometric system 1984;Urbaine
FR29429;RIVE DE GIER;;11/12/1998;;En service;Rue Michelet;42186;RIVE-DE-GIER;ZAG SAINT-ETIENNE (FR84ZAG03);ATMO AUVERGNE-RHÔNE-ALPES (32);4.623939;45.533424;259.0;World geometric system 1984;Périurbaine
FR29439;LA TALAUDIERE;;21/01/2010;;En service;19 R Romain Rolland;42305;LA TALAUDIÈRE;ZAG SAINT-ETIENNE (FR84ZAG03);ATMO AUVERGNE-RHÔNE-ALPES (32);4.429667;45.481777;520.0;World geometric system 1984;Périurbaine
FR29441;ST ETIENNE BD URBAIN ;;02/12/2015;;En service;24 Boulevard Jules Janin, 42000 Saint-Étienne, France;42218;SAINT-ÉTIENNE;ZAG SAINT-ETIENNE (FR84ZAG03);ATMO AUVERGNE-RHÔNE-ALPES (32);4.388763889;45.4479806;498.0;World geometric system 1984;Urbaine
FR30016;Hotel Districal;;03/07/1994;;En service;CUGN Viaduc Kennedy;54395;NANCY;ZAG NANCY (FR44ZAG03);ATMO GRAND EST (31);6.175111;48.685856;210.0;World geometric system 1984;Urbaine
FR30019;Epinal;;25/03/1995;;En service;impasse de louvière;88160;ÉPINAL;ZR GRAND-EST (FR44ZRE01);ATMO GRAND EST (31);6.45281666;48.1726528;350.0;World geometric system 1984;Urbaine
FR30021;Fléville;;27/01/1995;;En service;Rue des bouvreuils;54197;FLÉVILLE-DEVANT-NANCY;ZAG NANCY (FR44ZAG03);ATMO GRAND EST (31);6.194922;48.621502;250.0;World geometric system 1984;Périurbaine
FR30026;Luneville;;12/12/1995;;En service;Rue de la Meurthe;54329;LUNÉVILLE;ZR GRAND-EST (FR44ZRE01);ATMO GRAND EST (31);6.4839;48.584824;230.0;World geometric system 1984;Urbaine
FR30027;Frolois;;06/03/1996;;En service;Rue des écoles;54214;FROLOIS;ZR GRAND-EST (FR44ZRE01);ATMO GRAND EST (31);6.129578;48.565445;285.0;World geometric system 1984;Urbaine
FR30028;Schlucht;;19/09/1996;;En service;Chalet universitaire du Chitelet;88531;XONRUPT-LONGEMER;ZR GRAND-EST (FR44ZRE01);ATMO GRAND EST (31);7.011114;48.051117;1200.0;World geometric system 1984;Rurale près des villes
FR30030;Neuves-Maisons;;02/02/1998;;En service;Place Poirson;54397;NEUVES-MAISONS;ZAG NANCY (FR44ZAG03);ATMO GRAND EST (31);6.107672;48.614914;230.0;World geometric system 1984;Urbaine
FR30032;Heming;;09/12/1999;;En service;Rue de l'église;57314;HÉMING;ZR GRAND-EST (FR44ZRE01);ATMO GRAND EST (31);6.965275;48.694725;280.0;World geometric system 1984;Rurale près des villes
FR30033;Jonville en Woevre;Jonville-en-Woevre a fait partie des 6 stations rurales nationales qui répondent aux exigences de la Directive 2008/50/CE jusqu'en 2018.;09/01/2001;;En service;Rue des canes;55256;JONVILLE-EN-WOËVRE;ZR GRAND-EST (FR44ZRE01);ATMO GRAND EST (31);5.785556;49.06583;213.0;World geometric system 1984;Rurale régionale
FR30034;Nancy-Charles III;;30/07/2004;;En service;Rue Charles III;54395;NANCY;ZAG NANCY (FR44ZAG03);ATMO GRAND EST (31);6.190431;48.68817;200.0;World geometric system 1984;Urbaine
FR30036;Nancy-Libération;;18/10/2008;;En service;Avenue de la Libération;54395;NANCY;ZAG NANCY (FR44ZAG03);ATMO GRAND EST (31);6.154194;48.69708;277.0;World geometric system 1984;Urbaine
FR30037;Nancy-Brabois 2;;01/01/2010;;En service;20  Allée de Longchamp;54578;VILLERS-LÈS-NANCY;ZAG NANCY (FR44ZAG03);ATMO GRAND EST (31);6.136022;48.656944;360.0;World geometric system 1984;Périurbaine
FR31001;GRAND PARC;;01/07/1997;;En service;Rue Robert Schuman;33063;BORDEAUX;ZAG BORDEAUX (FR75ZAG01);ATMO NOUVELLE-AQUITAINE (30);-0.58037;44.86121;3.0;World geometric system 1984;Urbaine
FR31002;TALENCE;suspension des mesures entre février 2022 et début 2023 pour cause de travaux sur le site;01/01/1999;;En service;Angle rues de Verdun et Gal Percin;33522;TALENCE;ZAG BORDEAUX (FR75ZAG01);ATMO NOUVELLE-AQUITAINE (30);-0.589398;44.800462;20.0;World geometric system 1984;Urbaine
FR31006;MERIGNAC;;01/09/1998;;En service;Angle Cours de lYser et rue Joliot-Curie;33281;MÉRIGNAC;ZAG BORDEAUX (FR75ZAG01);ATMO NOUVELLE-AQUITAINE (30);-0.651068;44.841373;36.0;World geometric system 1984;Urbaine
FR31007;BASSENS;;01/07/1997;;En service;11 rue Paul Bert;33032;BASSENS;ZAG BORDEAUX (FR75ZAG01);ATMO NOUVELLE-AQUITAINE (30);-0.515835;44.900296;36.0;World geometric system 1984;Urbaine
FR31008;LE TEMPLE;;10/10/1997;;En service;23A route Sautuges Sud;33528;LE TEMPLE;ZR NOUVELLE-AQUITAINE (FR75ZRE02);ATMO NOUVELLE-AQUITAINE (30);-0.94;44.86581;43.0;World geometric system 1984;Rurale régionale
FR31010;AMBES;;01/05/1998;;En service;Rue Saint Exupéry;33004;AMBÈS;ZAG BORDEAUX (FR75ZAG01);ATMO NOUVELLE-AQUITAINE (30);-0.533942;45.014777;3.0;World geometric system 1984;Périurbaine
FR31013;BILLERE;;16/11/1998;;En service;cimetière Californie - rue Lacaou;64129;BILLÈRE;ZR NOUVELLE-AQUITAINE (FR75ZRE02);ATMO NOUVELLE-AQUITAINE (30);-0.391543;43.310797;197.0;World geometric system 1984;Urbaine
FR31016;SAINT-CROUTS;;18/02/1998;;En service;3 avenue Darrigrand;64102;BAYONNE;ZAG BAYONNE (FR75ZAG02);ATMO NOUVELLE-AQUITAINE (30);-1.489157;43.47982;35.0;World geometric system 1984;Urbaine
FR31017;ANGLET;;21/03/1999;;En service;Angle Avenue du BAB - rue Paul Courbin;64024;ANGLET;ZAG BAYONNE (FR75ZAG02);ATMO NOUVELLE-AQUITAINE (30);-1.528753;43.494041;40.0;World geometric system 1984;Urbaine
FR31020;LACQ;;25/11/1998;;En service;Terres Nabes;64300;LACQ;ZR NOUVELLE-AQUITAINE (FR75ZRE02);ATMO NOUVELLE-AQUITAINE (30);-0.617728;43.41123;107.0;World geometric system 1984;Rurale près des villes
FR31021;LABASTIDE CEZERACQ;;09/05/1998;;En service;Ecole de Labastide Cézéracq;64288;LABASTIDE-CÉZÉRACQ;ZR NOUVELLE-AQUITAINE (FR75ZRE02);ATMO NOUVELLE-AQUITAINE (30);-0.538206;43.376279;123.0;World geometric system 1984;Rurale près des villes
FR31022;LAGOR;;17/01/1998;;En service;Terrain côte 202;64396;MONT;ZR NOUVELLE-AQUITAINE (FR75ZRE02);ATMO NOUVELLE-AQUITAINE (30);-0.673155;43.409857;202.0;World geometric system 1984;Rurale près des villes
FR31023;MASLACQ;;01/01/1998;;En service;Chemin de la tour - Stade municipal;64367;MASLACQ;ZR NOUVELLE-AQUITAINE (FR75ZRE02);ATMO NOUVELLE-AQUITAINE (30);-0.695041;43.436455;76.0;World geometric system 1984;Rurale près des villes
FR31024;MOURENX;;01/05/1998;;En service;Ecole maternelle de Mourenx;64410;MOURENX;ZR NOUVELLE-AQUITAINE (FR75ZRE02);ATMO NOUVELLE-AQUITAINE (30);-0.610278;43.377194;106.0;World geometric system 1984;Rurale près des villes
FR31026;TARTAS Pelletrin;;07/02/1998;;En service;Lotissement Pelletrin rue des Bruyères;40313;TARTAS;ZR NOUVELLE-AQUITAINE (FR75ZRE02);ATMO NOUVELLE-AQUITAINE (30);-0.81203;43.838876;22.0;World geometric system 1984;Périurbaine
FR31033;PERIGUEUX;;10/04/2002;;En service;Rue Paul Louis Courier;24322;PÉRIGUEUX;ZR NOUVELLE-AQUITAINE (FR75ZRE02);ATMO NOUVELLE-AQUITAINE (30);0.727184;45.189825;142.0;World geometric system 1984;Urbaine
FR31039;PAU TOURASSE;;17/03/2011;;En service;boulevard Tourasse;64445;PAU;ZR NOUVELLE-AQUITAINE (FR75ZRE02);ATMO NOUVELLE-AQUITAINE (30);-0.352116;43.311091;218.0;World geometric system 1984;Urbaine
FR31040;MARMANDE;;27/09/2012;;En service;avenue Jean Jaurès (D813 ex N113);47157;MARMANDE;ZR NOUVELLE-AQUITAINE (FR75ZRE02);ATMO NOUVELLE-AQUITAINE (30);0.142695;44.508782;17.0;World geometric system 1984;Périurbaine
FR31043;Biarritz-hippodrome;;16/12/2015;;En service;;64122;BIARRITZ;ZAG BAYONNE (FR75ZAG02);ATMO NOUVELLE-AQUITAINE (30);-1.553876;43.470237;70.0;World geometric system 1984;Périurbaine
FR31045;Bordeaux_GAUTIER;Situé à proximité d' un axe routier majeur de l 'agglomération (boulevard Gautier). sur une zone à forte densité de population. ;01/01/2018;;En service;Boulevard Antoine Gautier;33063;BORDEAUX;ZAG BORDEAUX (FR75ZAG01);ATMO NOUVELLE-AQUITAINE (30);-0.598525;44.833825;15.0;World geometric system 1984;Urbaine
FR31055;MONT-DE-MARSAN - MIDOUZE;;13/02/2023;;En service;291 RUE SARRAUTE 40000 MONT-DE-MARSAN;40192;MONT-DE-MARSAN;ZR NOUVELLE-AQUITAINE (FR75ZRE02);ATMO NOUVELLE-AQUITAINE (30);-0.507028;43.888972;35.0;World geometric system 1984;Urbaine
FR31057;Floirac Branne;;17/05/2023;;En service;12 avenue des Mondaults;33167;FLOIRAC;ZAG BORDEAUX (FR75ZAG01);ATMO NOUVELLE-AQUITAINE (30);-0.50698;44.84341;75.0;World geometric system 1984;Urbaine
FR32001;Chalon Centre Ville;;01/09/1996;;En service;37 Avenue Nicéphore;71076;CHALON-SUR-SAÔNE;ZAR CHALON (FR27ZAR04);ATMO BOURGOGNE-FRANCHE-COMTE (33);4.847322;46.782311;177.0;World geometric system 1984;Urbaine
FR32002;Champforgueil;;01/09/1996;;En service;Rue du Quart-Pidoux;71081;CHAMPFORGEUIL;ZAR CHALON (FR27ZAR04);ATMO BOURGOGNE-FRANCHE-COMTE (33);4.835083;46.821056;187.0;World geometric system 1984;Périurbaine
FR32005;Montceau-les-Mines 9me écluse;;27/05/1999;;En service;9 ème Ecluse;71306;MONTCEAU-LES-MINES;ZR BOURGOGNE-FRANCHE-COMTE (FR27ZRE01);ATMO BOURGOGNE-FRANCHE-COMTE (33);4.366893;46.678785;281.0;World geometric system 1984;Urbaine
FR32006;Macon Paul Bert;;03/03/2000;;En service;Quai Mal Delattre de Tassigny;71270;MÂCON;ZR BOURGOGNE-FRANCHE-COMTE (FR27ZRE01);ATMO BOURGOGNE-FRANCHE-COMTE (33);4.839994;46.316172;172.0;World geometric system 1984;Périurbaine
FR33101;PASTEUR;;19/03/1998;;En service;rue Pasteur;73065;CHAMBÉRY;ZAR PAYS-DE-SAVOIE (FR84ZAR01);ATMO AUVERGNE-RHÔNE-ALPES (32);5.928333;45.56472;280.0;World geometric system 1984;Urbaine
FR33102;CHAMBERY LE HAUT;;01/11/1997;;En service;du Grand Champ - Lycée Louis Armand;73065;CHAMBÉRY;ZAR PAYS-DE-SAVOIE (FR84ZAR01);ATMO AUVERGNE-RHÔNE-ALPES (32);5.918611;45.59667;383.0;World geometric system 1984;Urbaine
FR33105;Chambéry Trafic;;31/12/2014;;En service;Avenue de Turin;73065;CHAMBÉRY;ZAR PAYS-DE-SAVOIE (FR84ZAR01);ATMO AUVERGNE-RHÔNE-ALPES (32);5.932986;45.56943;277.0;World geometric system 1984;Urbaine
FR33111;SAINT JEAN;;01/11/1997;;En service;Rue Charles Dullin;73248;SAINT-JEAN-DE-MAURIENNE;ZR AUVERGNE-RHONE-ALPES (FR84ZRE02);ATMO AUVERGNE-RHÔNE-ALPES (32);6.349722;45.274723;555.0;World geometric system 1984;Urbaine
FR33113;Maurienne Trafic;Remplacement de la station 33114 St Julien Trafic;04/01/2019;;En service;;73261;SAINT-MICHEL-DE-MAURIENNE;ZR AUVERGNE-RHONE-ALPES (FR84ZRE02);ATMO AUVERGNE-RHÔNE-ALPES (32);6.480326;45.209364;742.0;World geometric system 1984;Périurbaine
FR33120;CHAMONIX;;31/10/1997;;En service;Rue du Lyret;74056;CHAMONIX-MONT-BLANC;ZAR VALLEE-DE-L-ARVE (FR84ZAR03);ATMO AUVERGNE-RHÔNE-ALPES (32);6.87;45.9225;1038.0;World geometric system 1984;Urbaine
FR33121;Albertville;;09/11/1999;;En service;Rue Félix Chautemps;73011;ALBERTVILLE;ZAR VALLEE-DE-LA-TARANTAISE (FR84ZAR04);ATMO AUVERGNE-RHÔNE-ALPES (32);6.389722;45.675;352.0;World geometric system 1984;Urbaine
FR33122;La Léchère;;23/12/2010;;En service;Viaduc du Champ du Comte;73187;LÉCHÈRE ;ZAR VALLEE-DE-LA-TARANTAISE (FR84ZAR04);ATMO AUVERGNE-RHÔNE-ALPES (32);6.471111;45.53583;423.0;World geometric system 1984;Rurale près des villes
FR33201;LOVERCHY;;12/05/1998;;En service;Rue du Travail;74010;ANNECY ;ZAR PAYS-DE-SAVOIE (FR84ZAR01);ATMO AUVERGNE-RHÔNE-ALPES (32);6.118333;45.89528;453.0;World geometric system 1984;Urbaine
FR33202;NOVEL;;07/04/1998;;En service;Impasse de l'Arcalod;74010;ANNECY ;ZAR PAYS-DE-SAVOIE (FR84ZAR01);ATMO AUVERGNE-RHÔNE-ALPES (32);6.135556;45.916943;461.0;World geometric system 1984;Urbaine
FR33203;ANNECY Rocade;;02/01/2014;;En service;Bd de le Rocade;74010;ANNECY ;ZAR PAYS-DE-SAVOIE (FR84ZAR01);ATMO AUVERGNE-RHÔNE-ALPES (32);6.11825;45.9097;452.0;World geometric system 1984;Urbaine
FR33211;ANNEMASSE;;07/05/1998;;En service;Avenue Florissant;74012;ANNEMASSE;ZAR PAYS-DE-SAVOIE (FR84ZAR01);ATMO AUVERGNE-RHÔNE-ALPES (32);6.240556;46.19583;441.0;World geometric system 1984;Urbaine
FR33212;GAILLARD;;31/03/1998;;En service;Rue du Pont Noir;74133;GAILLARD;ZAR PAYS-DE-SAVOIE (FR84ZAR01);ATMO AUVERGNE-RHÔNE-ALPES (32);6.214858;46.19369;426.0;World geometric system 1984;Urbaine
FR33220;PASSY;;06/07/2006;;En service;Impasse des Primeveres;74208;PASSY;ZAR VALLEE-DE-L-ARVE (FR84ZAR03);ATMO AUVERGNE-RHÔNE-ALPES (32);6.713611;45.92361;588.0;World geometric system 1984;Périurbaine
FR33232;BOSSONS;;20/03/2006;;En service;RD 1205;74056;CHAMONIX-MONT-BLANC;ZAR VALLEE-DE-L-ARVE (FR84ZAR03);ATMO AUVERGNE-RHÔNE-ALPES (32);6.845833;45.907223;1044.0;World geometric system 1984;Urbaine
FR33302;St Germain/Rhône;;29/10/2002;;En service;Lieu-dit Sous les Ages;74235;SAINT-GERMAIN-SUR-RHÔNE;ZR AUVERGNE-RHONE-ALPES (FR84ZRE02);ATMO AUVERGNE-RHÔNE-ALPES (32);5.820833;46.072224;477.0;World geometric system 1984;Rurale près des villes
FR33305;Bourg-en-Bresse;;01/01/2009;;En service;Rue des Blanchisseries;01053;BOURG-EN-BRESSE;ZR AUVERGNE-RHONE-ALPES (FR84ZRE02);ATMO AUVERGNE-RHÔNE-ALPES (32);5.226389;46.211666;220.0;World geometric system 1984;Urbaine
FR34013;Gambetta;;01/02/1999;;En service;Place Gambetta;45234;ORLÉANS;ZAG ORLEANS (FR24ZAG02);LIG'AIR (19);1.901139;47.907083;117.0;World geometric system 1984;Urbaine
FR34017;Marigny-les-usages;;18/07/2005;;En service;280 rue de la Gare;45197;MARIGNY-LES-USAGES;ZAG ORLEANS (FR24ZAG02);LIG'AIR (19);2.009278;47.958972;123.0;World geometric system 1984;Périurbaine
FR34024;Joué lès Tours;;01/08/1999;;En service;Rue des Fauvettes - Ecole Blotterie;37122;JOUÉ-LÈS-TOURS;ZAG TOURS (FR24ZAG01);LIG'AIR (19);0.653778;47.344139;90.0;World geometric system 1984;Urbaine
FR34025;La Bruyère;;29/03/2000;;En service;Avenue de Roubaix - Collège La Bruyère;37261;TOURS;ZAG TOURS (FR24ZAG01);LIG'AIR (19);0.682944;47.419083;100.0;World geometric system 1984;Urbaine
FR34026;Tours péri-urbaine;;01/02/2008;;En service;rue de la Bretonnière - château d'eau;37054;CHANCEAUX-SUR-CHOISILLE;ZAG TOURS (FR24ZAG01);LIG'AIR (19);0.717333;47.46925;108.0;World geometric system 1984;Périurbaine
FR34028;Pompidou;;24/12/2008;;En service;Rond Point Bd Heurteloup - Bd Pompidou;37261;TOURS;ZAG TOURS (FR24ZAG01);LIG'AIR (19);0.704861;47.394639;51.0;World geometric system 1984;Urbaine
FR34029;La_Source-CNRS;;01/01/2013;;En service;3 avenue de la recherche scientifique;45234;ORLÉANS;ZAG ORLEANS (FR24ZAG02);LIG'AIR (19);1.944667;47.83775;109.0;World geometric system 1984;Urbaine
FR34030;Bourges-Baffier;;01/01/2013;;En service;rue Jean Baffier-jardin Jean de Berry;18033;BOURGES;ZR CENTRE-VAL-DE-LOIRE (FR24ZRE02);LIG'AIR (19);2.407183;47.075044;156.0;World geometric system 1984;Urbaine
FR34032;Leblanc;;01/09/1998;;En service;rue Nicolas Leblanc-Ecole Leblanc;18033;BOURGES;ZR CENTRE-VAL-DE-LOIRE (FR24ZRE02);LIG'AIR (19);2.405333;47.082778;133.0;World geometric system 1984;Urbaine
FR34038;Verneuil;site MERA;04/06/2008;;En service;Le Bourg - mairie;18277;VERNEUIL;ZR CENTRE-VAL-DE-LOIRE (FR24ZRE02);LIG'AIR (19);2.610069;46.814694;182.0;World geometric system 1984;Rurale nationale
FR34041;Fulbert;;23/06/1999;;En service;rue Saint Chéron - Lycée Fulbert;28085;CHARTRES;ZR CENTRE-VAL-DE-LOIRE (FR24ZRE02);LIG'AIR (19);1.510139;48.444417;145.0;World geometric system 1984;Urbaine
FR34043;Oysonville;;21/07/2001;;En service;rue du Château d'eau;28294;OYSONVILLE;ZR CENTRE-VAL-DE-LOIRE (FR24ZRE02);LIG'AIR (19);1.955611;48.391139;150.0;World geometric system 1984;Rurale régionale
FR34046;Dreux Centre;;24/06/2004;;En service;Général Koenig;28134;DREUX;ZR CENTRE-VAL-DE-LOIRE (FR24ZRE02);LIG'AIR (19);1.358472;48.729694;90.0;World geometric system 1984;Urbaine
FR34047;Saint-Remy;;20/12/2012;;En service;1 rue Aristide Briand;28359;SAINT-RÉMY-SUR-AVRE;ZR CENTRE-VAL-DE-LOIRE (FR24ZRE02);LIG'AIR (19);1.233639;48.760889;99.0;World geometric system 1984;Périurbaine
FR34048;Chartres_trafic;;02/01/2019;;En service;Boulevard du Maréchal Foch;28085;CHARTRES;ZR CENTRE-VAL-DE-LOIRE (FR24ZRE02);LIG'AIR (19);1.492469;48.449158;129.0;World geometric system 1984;Urbaine
FR34051;Chateauroux Sud;;14/11/2000;;En service;216 Avenue Verdun;36044;CHÂTEAUROUX;ZR CENTRE-VAL-DE-LOIRE (FR24ZRE02);LIG'AIR (19);1.693139;46.798278;156.0;World geometric system 1984;Urbaine
FR34054;Faverolles;;30/08/2005;;En service;Route de Lucay, centre de télécommunication;36244;VILLENTROIS-FAVEROLLES-EN-BERRY ;ZR CENTRE-VAL-DE-LOIRE (FR24ZRE02);LIG'AIR (19);1.409694;47.170167;130.0;World geometric system 1984;Rurale régionale
FR34056;Montierchaume;;02/10/2012;;En service;Square Raymond;36128;MONTIERCHAUME;ZR CENTRE-VAL-DE-LOIRE (FR24ZRE02);LIG'AIR (19);1.771944;46.864528;161.0;World geometric system 1984;Périurbaine
FR34061;Blois nord;;13/12/2001;;En service;rue J Baptiste Charcot, école Charcot;41018;BLOIS;ZAR BLOIS (FR24ZAR02);LIG'AIR (19);1.302667;47.594256;118.0;World geometric system 1984;Urbaine
FR34063;Blois_trafic;;17/12/2020;;En service;Rue du Bourg Neuf;41018;BLOIS;ZAR BLOIS (FR24ZAR02);LIG'AIR (19);1.326533;47.586544;88.0;World geometric system 1984;Urbaine
FR34064;Montargis_trafic;;07/01/2019;;En service;Avenue du Général de Gaulle;45208;MONTARGIS;ZR CENTRE-VAL-DE-LOIRE (FR24ZRE02);LIG'AIR (19);2.740111;48.006936;88.0;World geometric system 1984;Urbaine
FR34066;Montargis Les Cites;;04/01/2023;;En service;;45208;MONTARGIS;ZR CENTRE-VAL-DE-LOIRE (FR24ZRE02);LIG'AIR (19);2.72618;48.00145;106.0;World geometric system 1984;Urbaine
FR34067;St Jean de la Ruelle;;10/01/2023;;En service;Rue W Churchill - Ecole J Prévert;45285;SAINT-JEAN-DE-LA-RUELLE;ZAG ORLEANS (FR24ZAG02);LIG'AIR (19);1.873431;47.910303;115.0;World geometric system 1984;Urbaine
FR34108;Bazoches_CC;Site de surveillance régionale des métaux lourds. Ce site remplace le site 34102 fermé en janvier 2019 pour cause de déménagement de la communauté de commune et la vente du site qui en découle;01/02/2019;;En service;;45025;BAZOCHES-LES-GALLERANDES;ZR CENTRE-VAL-DE-LOIRE (FR24ZRE02);LIG'AIR (19);2.044028;48.166056;130.0;World geometric system 1984;Rurale près des villes
FR35002;ST JUNIEN - Fontaine;;17/12/1997;;En service;de la Fontaine;87154;SAINT-JUNIEN;ZR NOUVELLE-AQUITAINE (FR75ZRE02);ATMO NOUVELLE-AQUITAINE (30);0.898431;45.884851;227.0;World geometric system 1984;Urbaine
FR35004;BRIVE - Dalton;;21/01/1998;;En service;Rue General Dalton;19031;BRIVE-LA-GAILLARDE;ZR NOUVELLE-AQUITAINE (FR75ZRE02);ATMO NOUVELLE-AQUITAINE (30);1.537259;45.158738;121.0;World geometric system 1984;Urbaine
FR35005;GUERET - Nicolas;;28/07/1998;;En service;Aire R. Nicolas  Rue Jean Moreau;23096;GUÉRET;ZR NOUVELLE-AQUITAINE (FR75ZRE02);ATMO NOUVELLE-AQUITAINE (30);1.873024;46.17362;437.0;World geometric system 1984;Urbaine
FR35006;TULLE - Hugo;;09/11/1998;;En service;Edmond Michelet;19272;TULLE;ZR NOUVELLE-AQUITAINE (FR75ZRE02);ATMO NOUVELLE-AQUITAINE (30);1.762752;45.262665;264.0;World geometric system 1984;Urbaine
FR35007;PALAIS S/ V.- Garros;;12/11/1998;;En service;Allee Roland Garros;87113;LE PALAIS-SUR-VIENNE;ZAR LIMOGES (FR75ZAR01);ATMO NOUVELLE-AQUITAINE (30);1.307916;45.873311;333.0;World geometric system 1984;Périurbaine
FR35010;LIMOGES - Aine;;01/03/2008;;En service;place d aine;87085;LIMOGES;ZAR LIMOGES (FR75ZAR01);ATMO NOUVELLE-AQUITAINE (30);1.254772;45.829975;246.0;World geometric system 1984;Urbaine
FR35012;LA NOUAILLE - MERA;site MERA;10/07/2004;;En service;chemin des combauds  Le Montfranc;23144;LA NOUAILLE;ZR NOUVELLE-AQUITAINE (FR75ZRE02);ATMO NOUVELLE-AQUITAINE (30);2.062333;45.80509;810.0;World geometric system 1984;Rurale nationale
FR35019;SAILLAT - Ipaper;site périurbain industriel puis rural près des villes suite changement de typologie demandé fin 2021;16/07/2008;;En service;Impasse de la Maluche;87131;SAILLAT-SUR-VIENNE;ZR NOUVELLE-AQUITAINE (FR75ZRE02);ATMO NOUVELLE-AQUITAINE (30);0.823951;45.875834;187.0;World geometric system 1984;Rurale près des villes
FR35027;LIMOGES - BERLAND;Création d'un nouveau site afin de compenser l'arrêt du site fixe 35003 Limoges-Présidial (cause : vente du bâtiment abritant le site) et de garantir la qualité de la surveillance sur la zone administrative de surveillance;08/01/2019;;En service;Ecole Léon Berland, Avenue du général Leclerc;87085;LIMOGES;ZAR LIMOGES (FR75ZAR01);ATMO NOUVELLE-AQUITAINE (30);1.259689;45.842204;437.0;World geometric system 1984;Urbaine
FR36001;Valence Périurb. Sud;;05/10/1999;;En service;Groupe scolaire Joliot-Curie;26252;PORTES-LÈS-VALENCE;ZAR VALLEE-DU-RHONE (FR84ZAR02);ATMO AUVERGNE-RHÔNE-ALPES (32);4.876289;44.870243;125.0;World geometric system 1984;Périurbaine
FR36002;Valence Urb. Centre;;29/11/2000;;En service;Square Lesdiguières;26362;VALENCE;ZAR VALLEE-DU-RHONE (FR84ZAR02);ATMO AUVERGNE-RHÔNE-ALPES (32);4.893481;44.933514;125.0;World geometric system 1984;Urbaine
FR36007;Saint Bauzile CEC;;01/04/2007;;En service;Mairie de St Bauzile le Village;07219;SAINT-BAUZILE;ZR AUVERGNE-RHONE-ALPES (FR84ZRE02);ATMO AUVERGNE-RHÔNE-ALPES (32);4.673586;44.675938;460.0;World geometric system 1984;Rurale régionale
FR36019;Romans-sur-Isère;;07/06/2002;;En service;Parc F. Mitterrand - Rue St Romains;26281;ROMANS-SUR-ISÈRE;ZAR VALLEE-DU-RHONE (FR84ZAR02);ATMO AUVERGNE-RHÔNE-ALPES (32);5.0443;45.0425;150.0;World geometric system 1984;Urbaine
FR36021;Drôme Rurale Sud-SND;site MERA;19/12/2013;;En service;RD 135 - Centre de secours;26321;SAINT-NAZAIRE-LE-DÉSERT;ZR AUVERGNE-RHONE-ALPES (FR84ZRE02);ATMO AUVERGNE-RHÔNE-ALPES (32);5.278972;44.569443;605.0;World geometric system 1984;Rurale nationale
FR36032;A7 Valence Est;;28/12/2017;;En service;12 Rue des Corsaires;26058;BOURG-LÈS-VALENCE;ZAR VALLEE-DU-RHONE (FR84ZAR02);ATMO AUVERGNE-RHÔNE-ALPES (32);4.890133;44.9492;113.0;World geometric system 1984;Urbaine
FR37001;ST de Baie mahault;;21/11/2003;;En service;;97103;BAIE-MAHAULT;ZAG POINTE-A-PITRE (FR01ZAG01);GWAD'AIR (26);-61.591725;16.257308;18.0;World geometric system 1984;Périurbaine
FR37006;PTP-VICTOIRE;;23/02/2017;;En service;Place de la Victoire;97120;POINTE-À-PITRE;ZAG POINTE-A-PITRE (FR01ZAG01);GWAD'AIR (26);-61.534101;16.23674;7.0;World geometric system 1984;Urbaine
FR37010;BT_PICHON;;09/01/2018;;En service;;97105;BASSE-TERRE;ZR GUADELOUPE (FR01ZRE01);GWAD'AIR (26);-61.727203;15.994349;37.0;World geometric system 1984;Urbaine
FR37038;SXM Marigot;évaluation de l'île de Saint-Martin ;01/01/2021;;En service;;97801;SAINT-MARTIN;ZR GUADELOUPE (FR01ZRE01);GWAD'AIR (26);-63.081481;18.070114;99.0;World geometric system 1984;Urbaine
FR37040;ABYMES RN1;;18/01/2021;;En service;;97101;LES ABYMES;ZAG POINTE-A-PITRE (FR01ZAG01);GWAD'AIR (26);-61.53713;16.254085;13.0;World geometric system 1984;Périurbaine
FR38001;LYC. LISLET GEOFFROY;;17/11/1999;;En service;Allée des Etudiants;97411;SAINT-DENIS;ZAR SAINT-DENIS (FR04ZAR01);ATMO REUNION (22);55.46884;-20.889893;20.0;World geometric system 1984;Urbaine
FR38002;MONTGAILLARD;;23/11/1999;;En service;1 rue du stade;97411;SAINT-DENIS;ZAR SAINT-DENIS (FR04ZAR01);ATMO REUNION (22);55.468334;-20.903294;150.0;World geometric system 1984;Périurbaine
FR38009;Ecole La Marine;;22/07/2003;;En service;14 chemin des pêcheurs de La Marine;97420;SAINTE-SUZANNE;ZAR SAINT-DENIS (FR04ZAR01);ATMO REUNION (22);55.618977;-20.910585;5.0;World geometric system 1984;Périurbaine
FR38011;Station Luther King;;04/04/2007;;En service;179 Bd Hubert Delisle;97416;SAINT-PIERRE;ZAR VOLCAN (FR04ZAR02);ATMO REUNION (22);55.45906;-21.334406;10.0;World geometric system 1984;Urbaine
FR38014;Ligne Paradis;;30/07/2007;;En service;28 rue Benoite Boulard;97416;SAINT-PIERRE;ZAR VOLCAN (FR04ZAR02);ATMO REUNION (22);55.474194;-21.312895;142.0;World geometric system 1984;Périurbaine
FR38016;Station Bourg-Murat;;22/02/2008;;En service;9 rue Josemont lauret Ecole Bourg;97422;LE TAMPON;ZAR VOLCAN (FR04ZAR02);ATMO REUNION (22);55.58262;-21.204815;1601.0;World geometric system 1984;Rurale régionale
FR38017;Grand Coude;;14/10/2010;;En service;Usine a the;97412;SAINT-JOSEPH;ZAR VOLCAN (FR04ZAR02);ATMO REUNION (22);55.62793;-21.29433;1141.0;World geometric system 1984;Rurale régionale
FR38018;Centre Penitencier;;17/08/2012;;En service;;97407;LE PORT;ZAR SAINT-DENIS (FR04ZAR01);ATMO REUNION (22);55.313828;-20.9498;147.0;World geometric system 1984;Périurbaine
FR38020;Plateau Caillou;Plateau Caillou - St Paul;11/06/2014;;En service;;97415;SAINT-PAUL;ZAR SAINT-DENIS (FR04ZAR01);ATMO REUNION (22);55.266773;-21.022112;165.0;World geometric system 1984;Urbaine
FR38021;Grand Fond;Enceinte Plateau Sportif - Grand Fond St Paul;14/08/2014;;En service;;97415;SAINT-PAUL;ZAR SAINT-DENIS (FR04ZAR01);ATMO REUNION (22);55.232563;-21.032139;253.0;World geometric system 1984;Périurbaine
FR38022;Chaussée Royale;Station Trafic Chaussee Royale St Paul;26/09/2014;;En service;;97415;SAINT-PAUL;ZAR SAINT-DENIS (FR04ZAR01);ATMO REUNION (22);55.28062;-20.998577;11.0;World geometric system 1984;Urbaine
FR38023;BD BANKS;Les polluants réglementés surveillés en continu sur la station BKS afin de respecter les objectifs fixés sont les suivantes : NOx (NO et NO2) et PM10.;05/01/2015;;En service;;97416;SAINT-PIERRE;ZAR VOLCAN (FR04ZAR02);ATMO REUNION (22);55.478949;-21.331703;91.0;World geometric system 1984;Urbaine
FR38024;RDT SAINT-LEU;La station RDT est implantée dans un secteur de ‘Bois de Nèfles Piton’, sur la commune de Saint-Leu, présentant une zone de bâti non-continu (coupure de plus de 200 m entre deux constructions).;30/12/2015;;En service;;97413;SAINT-LEU;ZR LA REUNION (FR04ZRE01);ATMO REUNION (22);55.302844;-21.213212;105.0;World geometric system 1984;Rurale près des villes
FR38091;Terrain de Sel;située à proximité de la centrale thermique EDF PEI Port Est, numéro interne 38026;29/08/2014;;En service;Rue Edmond Albius;97408;LA POSSESSION;ZAR SAINT-DENIS (FR04ZAR01);ATMO REUNION (22);55.332581;-20.928686;19.0;World geometric system 1984;Urbaine
FR38098;Sarda Garriga;;08/03/2005;;En service;Pretoria;97414;SAINT-LOUIS;ZAR VOLCAN (FR04ZAR02);ATMO REUNION (22);55.403065;-21.277075;65.0;World geometric system 1984;Urbaine
FR39003;Etang Zabricot;;01/01/2008;;En service;ZAC Etang Zabricot;97209;FORT-DE-FRANCE;ZAR FORT-DE-FRANCE (FR02ZAR01);MADININAIR (21);-61.041206;14.603497;25.0;World geometric system 1984;Urbaine
FR39008;Ville de Schoelcher;;25/02/2003;;En service;Route de l Université;97229;SCHŒLCHER;ZAR FORT-DE-FRANCE (FR02ZAR01);MADININAIR (21);-61.100792;14.616389;20.0;World geometric system 1984;Urbaine
FR39009;Lamentin;;26/02/2003;;En service;Quartier Bas Mission;97213;LE LAMENTIN;ZAR FORT-DE-FRANCE (FR02ZAR01);MADININAIR (21);-61.002586;14.610653;5.0;World geometric system 1984;Urbaine
FR39010;Concorde;Située sur la Rocade traversant le centre ville de Fort-de-France;04/07/2007;;En service;La Rocade;97209;FORT-DE-FRANCE;ZAR FORT-DE-FRANCE (FR02ZAR01);MADININAIR (21);-61.063492;14.613844;80.0;World geometric system 1984;Urbaine
FR39011;Reneville;;01/01/2010;;En service;rue de la Rocade;97209;FORT-DE-FRANCE;ZAR FORT-DE-FRANCE (FR02ZAR01);MADININAIR (21);-61.0530833;14.614111;15.0;World geometric system 1984;Urbaine
FR39014;Sainte_Luce;;10/09/2013;;En service;Rue des Frangipaniers;97227;SAINTE-LUCE;ZR MARTINIQUE (FR02ZRE01);MADININAIR (21);-60.927417;14.468869;46.0;World geometric system 1984;Périurbaine
FR39015;Fort-de-France - Hôtel de ville;Station Urbaine située à lhôtel de ville  de Fort de France;04/09/2013;;En service;;97209;FORT-DE-FRANCE;ZAR FORT-DE-FRANCE (FR02ZAR01);MADININAIR (21);-61.069778;14.607444;11.0;World geometric system 1984;Urbaine
FR39016;Robert Bourg;;08/06/2015;;En service;Rue Vincent Allegre;97222;LE ROBERT;ZAR FORT-DE-FRANCE (FR02ZAR01);MADININAIR (21);-60.939056;14.678025;18.0;World geometric system 1984;Urbaine
FR39017;Bellevue;;02/10/2015;;En service;;97209;FORT-DE-FRANCE;ZAR FORT-DE-FRANCE (FR02ZAR01);MADININAIR (21);-61.085331;14.601469;40.0;World geometric system 1984;Périurbaine
FR39109;Office du tourisme;;01/01/2014;;En service;;97234;BELLEFONTAINE;ZAR FORT-DE-FRANCE (FR02ZAR01);MADININAIR (21);-61.163361;14.671083;22.0;World geometric system 1984;Urbaine
FR40006;Kourou Gaston Monnerville Brady;;13/02/2015;;En service;Lycée Gaston Monnerville - Kourou;97304;KOUROU;ZR GUYANE (FR03ZRE01);ATMO GUYANE (23);-52.64649;5.164248;6.0;World geometric system 1984;Urbaine
FR40007;Kalou;Matoury Kalou;22/07/2014;;En service;Ecole élémentaire - Matoury Guimanmin;97307;MATOURY;ZAR ILE-DE-CAYENNE (FR03ZAR01);ATMO GUYANE (23);-52.3238;4.84816;12.0;World geometric system 1984;Périurbaine
FR40008;Caiena3;;27/01/2015;;En service;Collège Auxence Contout - Cayenne;97302;CAYENNE;ZAR ILE-DE-CAYENNE (FR03ZAR01);ATMO GUYANE (23);-52.32093;4.9378467;5.0;World geometric system 1984;Urbaine
FR40009;Bouchon;;23/03/2021;;En service;;97302;CAYENNE;ZAR ILE-DE-CAYENNE (FR03ZAR01);ATMO GUYANE (23);-52.321944;4.920833;10.48;World geometric system 1984;Urbaine
FR40010;Matiti;site prévu pour la surveillance des écosystèmes végétation;30/09/2020;;En service;Lycée agricole de Matiti;97305;MACOURIA;ZR GUYANE (FR03ZRE01);ATMO GUYANE (23);-52.563795;5.034602;8.5;World geometric system 1984;Rurale près des villes
FR41001;AJACCIO CANETTO;;23/05/2006;;En service;comte bacciochi Rue Chanoine François Maestroni;2A004;AJACCIO;ZAR AJACCIO (FR94ZAR01);QUALITAIR CORSE (25);8.735694;41.924694;39.0;World geometric system 1984;Urbaine
FR41002;BASTIA GIRAUD;;01/08/2006;;En service;Hyacinthe de Montera;2B033;BASTIA;ZAR BASTIA (FR94ZAR02);QUALITAIR CORSE (25);9.446417;42.697917;60.0;World geometric system 1984;Urbaine
FR41004;BASTIA LA MARANA;;03/01/2007;;En service;lieu dit Aghja Striccia;2B148;LUCCIANA;ZAR BASTIA (FR94ZAR02);QUALITAIR CORSE (25);9.475972;42.535833;15.0;World geometric system 1984;Périurbaine
FR41007;AJACCIO SPOSATA;;09/03/2007;31/12/2024;En service;chemin de sposata route de mezzavia;2A004;AJACCIO;ZAR AJACCIO (FR94ZAR01);QUALITAIR CORSE (25);8.757583;41.949222;60.0;World geometric system 1984;Périurbaine
FR41017;BASTIA MONTESORO;;23/05/2006;;En service;chemin agliani;2B033;BASTIA;ZAR BASTIA (FR94ZAR02);QUALITAIR CORSE (25);9.434639;42.671333;15.0;World geometric system 1984;Périurbaine
FR41024;VENACO;;29/04/2011;;En service;Lieu dit Belle Granaje;2B341;VENACO;ZR CORSE (FR94ZRE01);QUALITAIR CORSE (25);9.190028;42.236028;653.0;World geometric system 1984;Rurale régionale
FR41059;AJACCIO ABBATUCCI;;01/06/2016;31/12/2025;En service;63 Cours Napoléon;2A004;AJACCIO;ZAR AJACCIO (FR94ZAR01);QUALITAIR CORSE (25);8.738278;41.92575;8.0;World geometric system 1984;Urbaine
FR41060;BASTIA FANGO;La station implantée à proximité d'un axe routier important et dans l'axe est-ouest des brises thermiques . La proximité des établissements administratifs,  … et d'une densité de population relativement importante dans le rayon d'un kilomètre sont caractéristiques d'une implantation urbaine.;19/04/2017;;En service;Rue Marcel Paul;2B033;BASTIA;ZAR BASTIA (FR94ZAR02);QUALITAIR CORSE (25);9.446389;42.702833;15.0;World geometric system 1984;Urbaine
FR41063;AJACCIO CONFINA 2;;01/01/2024;;En service;63 Cours Napoléon;2A004;AJACCIO;ZAR AJACCIO (FR94ZAR01);QUALITAIR CORSE (25);8.79615833;41.94768611;70.0;World geometric system 1984;Périurbaine
FR41064;AJACCIO NAPOLEON;;01/01/2024;;En service;;2A004;AJACCIO;ZAR AJACCIO (FR94ZAR01);QUALITAIR CORSE (25);8.739364;41.929967;10.0;World geometric system 1984;Urbaine
FR42010;Strasbourg Neudorf Ecoquartier Danube;;16/11/2019;;En service;;67482;STRASBOURG;ZAG STRASBOURG (FR44ZAG01);ATMO GRAND EST (31);7.767833;48.572808;135.0;World geometric system 1984;Urbaine
FR42011;Haguenau-Place marché aux bestiaux;;30/03/2021;;En service;;67180;HAGUENAU;ZR GRAND-EST (FR44ZRE01);ATMO GRAND EST (31);7.786409;48.818352;143.0;World geometric system 1984;Urbaine
FR42012;Héming Rue des Ecoles;Site de prélèvements HaP, création liée à l'arrêt des HaP du site FR30032;30/01/2021;;En service;;57314;HÉMING;ZR GRAND-EST (FR44ZRE01);ATMO GRAND EST (31);6.965651;48.694513;281.0;World geometric system 1984;Rurale près des villes
FR43001;Kawéni Village;Implantée dans le parking  du site d'acceuil (DEAL de Kawéni);18/02/2022;;En service;;97611;MAMOUDZOU;ZR MAYOTTE (FR06ZRE01);HAWA MAYOTTE (27);45.223206;-12.772944;7.4;World geometric system 1984;Urbaine
FR43002;Convalescence;local fermé et climatisé de TFD sur le site de Convalescence ;07/03/2023;;En service;;97611;MAMOUDZOU;ZR MAYOTTE (FR06ZRE01);HAWA MAYOTTE (27);45.220235;-12.778186;117.0;World geometric system 1984;Urbaine
FR43099;Kawéni Nord;;31/05/2016;;En service;;97611;MAMOUDZOU;ZR MAYOTTE (FR06ZRE01);HAWA MAYOTTE (27);45.226197;-12.761174;15.5;World geometric system 1984;Périurbaine
FR50060;Montauban;;10/10/2020;;En service;;82121;MONTAUBAN;ZR OCCITANIE (FR76ZRE01);ATMO OCCITANIE (29);1.37530522;44.01285657;451.0;World geometric system 1984;Urbaine
FR50224;Perpignan bd Pyrénées;;01/01/2021;;En service;;66136;PERPIGNAN;ZAR PERPIGNAN (FR76ZAR01);ATMO OCCITANIE (29);2.888483;42.69587;37.0;World geometric system 1984;Urbaine
FR50225;Montpellier Liberté;site trafic;10/06/2022;;En service;;34172;MONTPELLIER;ZAG MONTPELLIER (FR76ZAG02);ATMO OCCITANIE (29);3.827868;43.611606;56.0;World geometric system 1984;Urbaine
FR82001;Besancon Mégevand;Rue à forte circulation - centre ville ancien - influence trafic;01/02/1992;;En service;15 rue Mégevand;25056;BESANÇON;ZAR BESANCON (FR27ZAR03);ATMO BOURGOGNE-FRANCHE-COMTE (33);6.023611;47.235973;243.0;World geometric system 1984;Urbaine
FR82005;Montfaucon;Zone résidentielle périurbaine - sommet de colline;15/09/2005;;En service;rue Comtesse Henriette;25395;MONTFAUCON;ZAR BESANCON (FR27ZAR03);ATMO BOURGOGNE-FRANCHE-COMTE (33);6.076472;47.23461;490.0;World geometric system 1984;Périurbaine
FR82006;Besançon Prévoyance;Zone résidentielle, dans l'enceinte grillagée du réservoir d'eau;06/01/2013;;En service;Rue de la Prévoyance;25056;BESANÇON;ZAR BESANCON (FR27ZAR03);ATMO BOURGOGNE-FRANCHE-COMTE (33);6.015419;47.2474;321.0;World geometric system 1984;Urbaine
FR82010;Montbéliard centre;Centre ville, proximité d'un parking ;01/05/2001;;En service;Rue des Huisselets;25388;MONTBÉLIARD;ZAR BELFORT-MONTBELIARD (FR27ZAR01);ATMO BOURGOGNE-FRANCHE-COMTE (33);6.794;47.510307;331.0;World geometric system 1984;Urbaine
FR82012;Dambenois Citoyen;Implantation isolée, en limite de zone résidentielle pavillonaire.;03/12/1999;;En service;Chemin du Citoyen;25188;DAMBENOIS;ZAR BELFORT-MONTBELIARD (FR27ZAR01);ATMO BOURGOGNE-FRANCHE-COMTE (33);6.868361;47.538193;365.0;World geometric system 1984;Périurbaine
FR82020;Belfort Octroi;Station implantéen centre-ville .Caractérisque de la pollution automobile .;01/12/1994;;En service;Quai Vauban;90010;BELFORT;ZAR BELFORT-MONTBELIARD (FR27ZAR01);ATMO BOURGOGNE-FRANCHE-COMTE (33);6.859278;47.640667;360.0;World geometric system 1984;Urbaine
FR82021;Belfort centre;Station centre ville.;01/01/2008;;En service;rue du chanoine bernard;90010;BELFORT;ZAR BELFORT-MONTBELIARD (FR27ZAR01);ATMO BOURGOGNE-FRANCHE-COMTE (33);6.858944;47.630755;357.0;World geometric system 1984;Urbaine
FR82030;Montandon Baresans;site MERA;17/03/1998;;En service;Lieu dit de Barezan;25387;MONTANDON;ZR BOURGOGNE-FRANCHE-COMTE (FR27ZRE01);ATMO BOURGOGNE-FRANCHE-COMTE (33);6.825861;47.29464;746.0;World geometric system 1984;Rurale nationale
FR82040;Dole centre;Implantation en zone urbaine;25/05/1997;;En service;Rue Faustin Besson;39198;DOLE;ZR BOURGOGNE-FRANCHE-COMTE (FR27ZRE01);ATMO BOURGOGNE-FRANCHE-COMTE (33);5.496389;47.09672;223.0;World geometric system 1984;Urbaine
FR82041;Tavaux;Enceinte du gymnase , proximité industrielle;26/06/2000;;En service;Rue H. Dunant (gymnase P. Mendès-France);39526;TAVAUX;ZR BOURGOGNE-FRANCHE-COMTE (FR27ZRE01);ATMO BOURGOGNE-FRANCHE-COMTE (33);5.400897;47.04261;192.0;World geometric system 1984;Rurale près des villes
FR82042;Damparis;Zone périurbaine, proximité industrielle;28/07/1994;;En service;64 rue de Belvoye;39189;DAMPARIS;ZR BOURGOGNE-FRANCHE-COMTE (FR27ZRE01);ATMO BOURGOGNE-FRANCHE-COMTE (33);5.415028;47.06564;210.0;World geometric system 1984;Rurale près des villes
FR82043;Chatenois;Périphérie urbaine, proximité industrielle;01/04/1995;;En service;Rue des platanes;39121;CHÂTENOIS;ZR BOURGOGNE-FRANCHE-COMTE (FR27ZRE01);ATMO BOURGOGNE-FRANCHE-COMTE (33);5.556117;47.14725;213.0;World geometric system 1984;Périurbaine
FR82050;Lons-le-Saunier CV;Centre ville- devant le conseil général;25/06/2002;;En service;rue Rouget de lIsle;39300;LONS-LE-SAUNIER;ZR BOURGOGNE-FRANCHE-COMTE (FR27ZRE01);ATMO BOURGOGNE-FRANCHE-COMTE (33);5.55662;46.671321;261.0;World geometric system 1984;Urbaine
FR82060;Vesoul Pres Caillet;La station est située en centre-ville.Elle est constituée d'une cabine de mesure placé à quelques mètres de la rue sur un site ouvert.;24/06/2002;;En service;Rue de Verdun;70550;VESOUL;ZR BOURGOGNE-FRANCHE-COMTE (FR27ZRE01);ATMO BOURGOGNE-FRANCHE-COMTE (33);6.157642;47.620022;217.0;World geometric system 1984;Urbaine
FR82070;Baume-les-Dames;La future station de proximité trafic de Baume-les-Dames sera installée dans l'enceinte d'une école, sur un axe traversant (D683) de Baume les Dames, à proximité d’habitations à forte densité.;10/12/2014;;En service;D683 - Avenue de Verdun;25047;BAUME-LES-DAMES;ZR BOURGOGNE-FRANCHE-COMTE (FR27ZRE01);ATMO BOURGOGNE-FRANCHE-COMTE (33);6.359722;47.351288;273.0;World geometric system 1984;Urbaine
